id,Global,Country,City,Mission,PrimaryCollegeOrSchool,PrimaryDepartmentOrCenter,ContactName,ContactEmail,ContactPosition,ProjectAcronym,ProjectTitle,ProjectWebsite,InternationalNetwork,InternationalInstitution,PrimaryFundingAgency,IRB,LOA,DTA,MOU,MTA,OtherAgreementType,NumStudentsTraveled,NumResidentsTraineesTraveled,NumFacultyInvolved,StartYear,EndYear,Description,Location,latitude,longitude
1,No,Argentina,Buenos Aires,Research,School of Medicine,Pediatrics,Sandra Luna-Fineman,,,,,,,Claudia Sampor (Argentina),,,,,,,,,,,,,"Writing an guideline and implementation stratagy for the diagnosis, treatment and support of retinoblastoma in Latin America (collaboration between AHOPCA and GALOP (Grupo de America Latina de Oncologia Pediatrica); Retinoblatoma Guideline Protocol at 3 levels of care according to resources for AHOPCA and SLAOP","Buenos Aires, Argentina",-34.6090264,-58.3732215
2,No,Australia,Sydney,Research,College of Nursing,,"Teri L. Hernandez, PhD, RN",,,,,,,University of Sydney and Western Sydney University,,,,,,,,,,,,,"Research collaboration, University of Sydney, Australia. Mentor/co-advisement of PhD students; Research collaboration, Western Sydney University, Australia","Sydney, Australia",-33.8727635,151.2053446
3,No,Australia,Brisbane,Education,School of Medicine,GME,,,,,,,,,,,,,,,,,,,,,"GME Resident International Conference. Brisbane, Australia (Oceania) Start Date: 03/17/2023 - End Date: 03/30/2023","Brisbane, Australia",-27.4700266,153.0229773
4,No,Australia,,Education,Skaggs School of Pharmacy and Pharmaceutical Sciences,,Assistant Dean Kimberly Stultz,,,,,,,,,,,,,,,,,,,,"Our Program offers ELPD students an opportunity to go international for a 6-week rotation if desired. Covid hampered this program for a few years, but the class of 2024 is back in normal with travel and opportunity. We don't have a set partnering instituion, and we have sent students to recurring sites and ""one-off"" sites in the past. We work with the Campus Global Services to ensure the students are follwoing campus travel guidelines as far as allowed locations and submitting the application so that campus knows when and where they are going and with whom they are rotating with. The class of 2024 has 17 students completing an international rotation in 10 different countries this year. We are working on building a network of known collaborative sites and offering those, versus networking ""one-off"" sites every year. The ten countries represented by this class cohort are Australia, Canada, Costa Rica, Greece, South Korea, Guatemala, New Zealand, Ireland and Japan.",Australia,-25.70993157,134.4840312
5,No,Australia,Gold Coast,Education,Skaggs School of Pharmacy and Pharmaceutical Sciences,,,,,,,,,,,,,,,,,,,,,,"International Student Travel, Gold Coast, Australia (Australia/Pacific Islands) Start Date: 11/13/2023 - End Date: 12/24/2023","Gold Coast, Australia",-28.03301571,153.2964432
6,No,Australia,Hastings,Education,Skaggs School of Pharmacy and Pharmaceutical Sciences,,,,,,,,,"Australia - Hastings Medical Centre, HPS Pharmacies, and Princess Alexandra Hospital",,,,,,,,,,,,,"Affiliation Agreement with Australia - Hastings Medical Centre, HPS Pharmacies, and Princess Alexandra Hospital","Hastings, Australia",-38.307583,145.190201
7,No,Bangladesh,,Education,College of Nursing,,Pam Prag,,,,,,,,,,,,,,,,,,,,"Potential site for UG Comm/Pop Health clinical immersion, research, DNP student placement",Bangladesh,23.80467048,90.2884539
8,No,Bosnia & Herzegovina,Sarajevo,Education,Colorado School of Public Health,,Annie Miller,,,,,,,Univeristy of Sarajevo,,,,,,,,,,,,,"Summer study abroad, exchange of faculty","Sarajevo, Bosnia & Herzegovina",44.16825412,17.78524992
9,No,Botswana,Gaborone,Research,College of Nursing,,"Christina Sun, PhD",,,,,,,University of Botswana,,,,,,,,,,,,,Conduct a 3-arm randomized controlled trial with 500 families to test a multilevel HIV prevention intervention. Partnering institution = University of Botswana; Location = Botswana,"Gaborone, Botswana",-24.6611781,25.9117509
10,No,Botswana,Gaborone,Education,College of Nursing,,"Christina Sun, PhD",,,,,,,University of Botswana,,,,,,,,,,,,,Conduct interviews with LGBT adults that utilize their photographs to understand continued health disparities. Partnering institutions = National Taiwan University and University of Botswana; Locations = Taiwan and Botswana,"Gaborone, Botswana",-24.6611781,25.9117509
11,No,Botswana,Gaborone,Research,College of Nursing,,"Christina Sun, PhD",,,,,,,National Taiwan University,,,,,,,,,,,,,Conduct interviews with LGBT adults that utilize their photographs to understand continued health disparities. Partnering institutions = National Taiwan University and University of Botswana; Locations = Taiwan and Botswana,"Gaborone, Botswana",-24.6611781,25.9117509
12,No,Botswana,Gaborone,Education,School of Medicine,,,,,,,,,,,,,,,,,,,,,,"International Student Travel. Gaborone, Botswana (Africa) Start Date: 02/21/2022 - End Date: 04/17/2022","Gaborone, Botswana",-24.6611781,25.9117509
13,No,Brazil,Rio de Janeiro,Research,Colorado School of Public Health,,Thomas Jaenisch,,,,,,,"Oswaldo Cruz Foundation, Rio de Janeiro, Brazil (Contact: Patricia Brasil)",,,,,,,,,,,,,"Reconciliation of Cohort Data for Infectious Diseases. Funded by the European Commission ending in Dec. 2023. This is based out of Heidelberg, Germany. Thomas Jaenisch is the overall PI (wearing Heidelberg hat) and the PI for Colorado. The work in Colorado focusses on harmonization for Serosurveillance and on virtual biorepositories.","Rio de Janeiro, Brazil",-22.9014475,-43.1789159
14,No,Brazil,Rio de Janeiro,Service/Clinical,Colorado School of Public Health,,,,,,,,,"Oswaldo Cruz Foundation, Rio de Janeiro, Brazil (Contact: Patricia Brasil)",,,,,,,,,,,,,"This is a project funded by the Eur. Commission, focused on preparedness of infectious disease cohorts in LMIC","Rio de Janeiro, Brazil",-22.9014475,-43.1789159
15,No,Brazil,Vitoria,Education,School of Dental Medicine,Community Dentistry and Population Health,"Bruce Dye, DDS, MPH",,,,,,,Universidade Federal do EspÃ­rito Santo (UFES) Center of Health Sciences Professional Program in Dentistry,,,,,,,,,,,,,"Developing collaborative learning opportunties for dental students that provides for immersive global health experiences focusing on oral health, dental care delivery and systems, interprofessional education and practice, and health policy in different settings. Partnership is with the the Universidade Federal do EspÃ­rito Santo (UFES) Center of Health Sciences Professional Program in Dentistry in Vitoria, Brazil. We're also conducting a dental student survey assessing student's perspectives on global health, service trips, and ethics with our UFES partner.","Vitoria, Brazil",-20.3168388,-40.3099161
16,No,Brazil,Rio de Janeiro,Education,School of Medicine,GME,,,,,,,,,,,,,,,,,,,,,"International Student Travel. Rio de Janeiro, Brazil (South America) Start Date: 05/13/2023 - End Date: 05/21/2023","Rio de Janeiro, Brazil",-22.9014475,-43.1789159
17,No,Brazil,Sao Paulo,Education,School of Medicine,GME,,,,,,,,,,,,,,,,,,,,,"International Student Travel. Sao Paulo, Brazil (South America) Start Date: 10/20/2022 - End Date: 10/25/2022","Sao Paulo, Brazil",-23.5486657,-46.6382522
18,No,Burkina Faso,Nouna,Research,Colorado School of Public Health,,,,,,,,,"Centre de Recherche en Sante a Nouna (CRSN), Burkina Faso (Contact: Ali Sie)",,,,,,,,,,,,,"Towards an African platform for congenital abnormalities and birth defects: This is a Gates Pilot Grant in the Africa Programme (led by African PI, administered by the AAS)","Nouna, Burkina Faso",12.7325405,-3.8628597
19,No,Cambodia,,Education,Colorado School of Public Health,,Alena Clark (CSU),,,,,,,HVO Nutrition,,,,,,,,,,,,,Working with a pediatric hospital in Cambodia to assist with nutrition policy development and educational needs in nutrition and lactation.,Cambodia,12.70783046,104.9141144
20,No,Cambodia,Phnom Penh,Service/Clinical,School of Medicine,,Victoria Seligman,,,,,,,,,,,,,,,,,,,,Clinicial program with attendings and fellows,"Phnom Penh, Cambodia",11.5661768,104.8820388
21,No,Cambodia,Kampot,Service/Clinical,School of Medicine,,Victoria Seligman,,,,,,,,,,,,,,,,,,,,Clinicial program with attendings and fellows,"Kampot, Cambodia",10.5896367,104.169159
22,No,Cambodia,Battambang,Service/Clinical,School of Medicine,,Victoria Seligman,,,,,,,,,,,,,,,,,,,,Clinicial program with attendings and fellows,"Battambang, Cambodia",12.2367742,104.255339
23,No,Cameroon,,Education,Colorado School of Public Health,,Alena Clark (CSU),,,,,,,"Tabidu Africa, Inc., and Cameroon Baptist Health Center",,,,,,,,,,,,,"Developing nutrition education materials with the target population, and developing nutrition education materials with the target population",Cameroon,5.672331431,12.7378693
24,No,Canada,Vancouver,Research,Colorado School of Public Health,Health Systems Mgmt Polic,Glen Mays,,,,,,,"University of British Columbia, University of Toronto, University of Victoria,",,,,,,,,,,,,,"Canadian Public Health Systems Research Program: This is an ongoing research collaboration funded by RWJF and the Canadian Institutes for Health Research, involving University of British Columbia, University of Toronto, University of Victoria, and CU-Anschutz","Vancouver, Canada",49.261636,-123.11335
25,No,Canada,Toronto,Research,Colorado School of Public Health,Health Systems Mgmt Polic,Glen Mays,,,,,,,"University of British Columbia, University of Toronto, University of Victoria,",,,,,,,,,,,,,"Canadian Public Health Systems Research Program: This is an ongoing research collaboration funded by RWJF and the Canadian Institutes for Health Research, involving University of British Columbia, University of Toronto, University of Victoria, and CU-Anschutz","Toronto, Canada",43.653524,-79.383907
26,No,Canada,Victoria,Research,Colorado School of Public Health,Health Systems Mgmt Polic,Glen Mays,,,,,,,"University of British Columbia, University of Toronto, University of Victoria,",,,,,,,,,,,,,"Canadian Public Health Systems Research Program: This is an ongoing research collaboration funded by RWJF and the Canadian Institutes for Health Research, involving University of British Columbia, University of Toronto, University of Victoria, and CU-Anschutz","Victoria, Canada",48.428409,-123.365642
27,No,Canada,Montreal,Education,School of Medicine,GME,,,,,,,,,,,,,,,,,,,,,"International Student Travel: Montreal, Canada (North America) Start Date: 10/15/2023 - End Date: 10/17/2023","Montreal, Canada",45.508867,-73.554242
28,No,Canada,Whistler,Education,School of Medicine,GME,,,,,,,,,,,,,,,,,,,,,"International Student Travel. Whistler, Canada (North America) Start Date: 02/01/2023 - End Date: 02/05/2023","Whistler, Canada",50.116168,-122.959423
29,No,Canada,,Education,Skaggs School of Pharmacy and Pharmaceutical Sciences,,Assistant Dean Kimberly Stultz,,,,,,,,,,,,,,,,,,,,"Our Program offers ELPD students an opportunity to go international for a 6-week rotation if desired. Covid hampered this program for a few years, but the class of 2024 is back in normal with travel and opportunity. We don't have a set partnering instituion, and we have sent students to recurring sites and ""one-off"" sites in the past. We work with the Campus Global Services to ensure the students are follwoing campus travel guidelines as far as allowed locations and submitting the application so that campus knows when and where they are going and with whom they are rotating with. The class of 2024 has 17 students completing an international rotation in 10 different countries this year. We are working on building a network of known collaborative sites and offering those, versus networking ""one-off"" sites every year. The ten countries represented by this class cohort are Australia, Canada, Costa Rica, Greece, South Korea, Guatemala, New Zealand, Ireland and Japan.",Canada,60.10867,-113.64258
30,No,Canada,Montreal,Education,Skaggs School of Pharmacy and Pharmaceutical Sciences,,,,,,,,,Canada - London HSC-LonDIS Drug Information Services and Centre Hospitalier de St. Mary,,,,,,,,,,,,,Affiliation Agreement with Canada - London HSC-LonDIS Drug Information Services and Centre Hospitalier de St. Mary,"Montreal, Canada",45.508867,-73.554242
31,No,Canada,Montreal,Education,Skaggs School of Pharmacy and Pharmaceutical Sciences,,,,,,,,,,,,,,,,,,,,,,"International Student Travel. Montreal, Canada (North America) Start Date: 08/19/2023 - End Date: 10/14/2023","Montreal, Canada",45.508867,-73.554242
32,No,Chile,,Education,College of Nursing,,Rosario Medina,,,,,,,,,,,,,,,,,,,,Academic guidance for curriculum,Chile,-30,-71
33,No,Chile,,Education,College of Nursing,,Dean's Office,,,,,,,,,,,,,,,,,,,,Introduction of advance practice to country/ ministry of education; student and faculty exchange,Chile,-30,-71
34,No,Chile,Santiago,Education,Colorado School of Public Health,,David Rojas (CSU),,,,,,,Universidad de Chile,,,,,,,,,,,,,Health Impact assessment course and Climate and health course in Chile,"Santiago, Chile",-33.4459946,-70.6670569
35,No,China,Nanjing,Research,Colorado School of Public Health,,Lorann Stallones,,,,,,,"Southeast University, Nanjing, China",,,,,,,,,,,,,"Injury Prevention Research Institute, Department of Epidemiology and Biostatistics, School of Public Health, Southeast University, Nanjing, China","Nanjing, China",32.06167,118.77778
36,No,China,Hefei Anhui,Research,Colorado School of Public Health,Biostatistics and Informatc,Yue Wang,,,,,,,"Department of Management Science, University of Science and Technology of China (USTC)",,,,,,,,,,,,,This study investigates the path following which the top management team background positively affects innovation performance of Chinese listed firms.,"Hefei Anhui, China",31.86389,117.28083
37,No,China,Beijing,Research,Skaggs School of Pharmacy and Pharmaceutical Sciences,,"Peggy McIntosh, Shaodong Dai, Ph.D.|Associate Professor 
 
 Department of Pharmaceutical Sciences",,,,,,,"China Agricultural University, College of Biological Sciences with SSPPS",,,,,,,,,,,,,Epigenetic controls of T cell immunity joint training and research project,"Beijing, China",39.9075,116.39723
38,No,China,,Education,Skaggs School of Pharmacy and Pharmaceutical Sciences,,,,,,,,,China - Huashan Worldwide Medical Center.,,,,,,,,,,,,,Affiliation Agreement with China - Huashan Worldwide Medical Center.,China,36.5673484,103.930027
39,No,China,Hong Kong,Education,Skaggs School of Pharmacy and Pharmaceutical Sciences,,,,,,,,,University of Hong Kong,,,,,,,,,,,,,Affiliation Agreement with China - University of Hong Kong,"Hong Kong, China",22.35195832,114.119386
40,No,China,,Research,Skaggs School of Pharmacy and Pharmaceutical Sciences,,Jared M. Brown,,,,,,,,,,,,,,,,,,,,Working with a colleague at the Chinese Academy of Sciences on development of nanotherapeutics,China,36.5673484,103.930027
41,No,Colombia,Bucaramanga,Research,Colorado School of Public Health,,Thomas Jaenisch,,,,,,,"Industrial University of Santander, Bucamaranga, Colombia (Contacts: Anyela Lozano, Gustavo Guaido)",,,,,,,,,,,,,"Reconciliation of Cohort Data for Infectious Diseases. Funded by the European Commission ending in Dec. 2023. This is based out of Heidelberg, Germany. Thomas Jaenisch is the overall PI (wearing Heidelberg hat) and the PI for Colorado. The work in Colorado focusses on harmonization for Serosurveillance and on virtual biorepositories.","Bucaramanga, Colombia",7.1311813,-73.1250327
42,No,Colombia,Bucaramanga,Service/Clinical,Colorado School of Public Health,,,,,,,,,"Industrial University of Santander, Bucamaranga, Colombia (Contacts: Anyela Lozano, Gustavo Guaido)",,,,,,,,,,,,,"This is a project funded by the Eur. Commission, focused on preparedness of infectious disease cohorts in LMIC","Bucaramanga, Colombia",7.1311813,-73.1250327
43,No,Colombia,Baranquilla,Research,Colorado School of Public Health,Epidemiology,David Rojas (CSU),,,,,,,Pan American Health Organization,,,,,,,,,,,,,Salud Urbana,"Baranquilla, Colombia",10.961041,-74.8009587
44,No,Colombia,,Service/Clinical,School of Medicine,Pediatrics,Sandra Luna-Fineman,,,,,,,"GALOP Argentina, GRACCO Brazil",,,,,,,,,,,,,"Online Retinoblastoma tumor board, meets weekly.",Colombia,3.901115804,-73.07575492
45,No,Colombia,,Education,Skaggs School of Pharmacy and Pharmaceutical Sciences,,,,,,,,,Minga House South America,,,,,,,,,,,,,Affiliation Agreement,Colombia,3.901115804,-73.07575492
46,No,Colombia,Chinchina,Education,Skaggs School of Pharmacy and Pharmaceutical Sciences,,,,,,,,,,,,,,,,,,,,,,"International Student Travel. Chinchina, Colombia (South America) Start Date: 01/06/2024 - End Date: 02/18/2024","Chinchina, Colombia",4.9843754,-75.6048006
47,No,Costa Rica,,Education,Colorado School of Public Health,,Meredith Fort,,,,,,,University of Costa Rica,,,,,,,,,,,,,Collaborative Teaching,Costa Rica,9.972837179,-84.19631844
48,No,Costa Rica,San Jose,Education,School of Medicine,,,,,,,,,,,,,,,,,,,,,,"International Student Travel. San Jose, Costa Rica (Central America and the Caribbean) Start Date: 08/14/2022 - End Date: 08/25/2022","San Jose, Costa Rica",9.9331345,-84.0797794
49,No,Costa Rica,San Jose,Research,School of Medicine,Pediatrics,Sandra Luna-Fineman,,,,,,,,,,,,,,,,,,,,"Support as a mentor on the Implementation of standard therapies for childhood cancers: retinoblastoma, Hodgkin lymphoma, Wilms tumor, neuroblastoma, rhabdomyosarcoma, Burkitt lymphoma","San Jose, Costa Rica",9.9331345,-84.0797794
50,No,Costa Rica,San Jose,Education,School of Medicine,Pediatrics,Sandra Luna-Fineman,,,,,,,AHOPCA: Central American Association of Pediatric Hematology-Oncology and GALOP (Grupo America Latina de Oncologia Pediatrica),,,,,,,,,,,,,Prospective treatment of retinoblastoma. Protocols 1 and 2 completed. Now designing and writing AHOPCA 3 Retinoblastoma that will incorporate other countries,"San Jose, Costa Rica",9.9331345,-84.0797794
51,No,Costa Rica,San Jose,Service/Clinical,School of Medicine,Pediatrics,Sandra Luna-Fineman,,,,,,,AHOPCA: Central American Association of Pediatric Hematology-Oncology and GALOP (Grupo America Latina de Oncologia Pediatrica),,,,,,,,,,,,,Prospective treatment of retinoblastoma. Protocols 1 and 2 completed. Now designing and writing AHOPCA 3 Retinoblastoma that will incorporate other countries,"San Jose, Costa Rica",9.9331345,-84.0797794
52,No,Costa Rica,San Jose,Service/Clinical,School of Medicine,Pediatrics,Sandra Luna-Fineman,,,,,,,"GALOP Argentina, GRACCO Brazil",,,,,,,,,,,,,"Online Retinoblastoma tumor board, meets weekly.","San Jose, Costa Rica",9.9331345,-84.0797794
53,No,Costa Rica,Santo Domingo,Education,School of Medicine,,,,,,,,,,,,,,,,,,,,,,,"Santo Domingo, Costa Rica",9.985548155,-84.06627499
54,No,Costa Rica,Santo Domingo,Education,School of Medicine,,,,,,,,,,,,,,,,,,,,,,"International Student Travel. Santo Domingo, Costa Rica (Central America and the Caribbean) Start Date: 01/30/2023 - End Date: 02/17/2023","Santo Domingo, Costa Rica",9.985548155,-84.06627499
55,No,Costa Rica,Nosara,Education,School of Medicine,,,,,,,,,,,,,,,,,,,,,,"International Student Travel. Nosara, Costa Rica (Central America) Start Date: 03/31/2023 - End Date: 04/08/2023|San Juan del Sur, Nicaragua (Central America) Start Date: 04/08/2023 - End Date: 04/19/2023","Nosara, Costa Rica",9.98141,-85.6516
56,No,Costa Rica,,Education,Skaggs School of Pharmacy and Pharmaceutical Sciences,,Jodie Maholtra,,,,,,,Universidad de Iberoamerica,,,,,,,,,,,,,,Costa Rica,9.972837179,-84.19631844
57,No,Costa Rica,,Education,Skaggs School of Pharmacy and Pharmaceutical Sciences,,Assistant Dean Kimberly Stultz,,,,,,,,,,,,,,,,,,,,"Our Program offers ELPD students an opportunity to go international for a 6-week rotation if desired. Covid hampered this program for a few years, but the class of 2024 is back in normal with travel and opportunity. We don't have a set partnering instituion, and we have sent students to recurring sites and ""one-off"" sites in the past. We work with the Campus Global Services to ensure the students are follwoing campus travel guidelines as far as allowed locations and submitting the application so that campus knows when and where they are going and with whom they are rotating with. The class of 2024 has 17 students completing an international rotation in 10 different countries this year. We are working on building a network of known collaborative sites and offering those, versus networking ""one-off"" sites every year. The ten countries represented by this class cohort are Australia, Canada, Costa Rica, Greece, South Korea, Guatemala, New Zealand, Ireland and Japan.",Costa Rica,9.972837179,-84.19631844
58,No,Costa Rica,,Education,Skaggs School of Pharmacy and Pharmaceutical Sciences,,,,,,,,,,,,,,,,,,,,,,"International Student Travel. San Jose, Costa Rica (Central America) Start Date: 07/09/2023 - End Date: 08/18/2023",Costa Rica,9.972837179,-84.19631844
59,No,Costa Rica,,Education,Skaggs School of Pharmacy and Pharmaceutical Sciences,,,,,,,,,Spanish for Pharmacists APPE,,,,,,,,,,,,,Affiliation Agreement with Costa Rica,Costa Rica,9.972837179,-84.19631844
60,No,Costa Rica,Santo Domingo,Education,Skaggs School of Pharmacy and Pharmaceutical Sciences,,,,,,,,,,,,,,,,,,,,,,"International Student Travel. Santo Domingo, Costa Rica (Central America) Start Date: 07/07/2023 - End Date: 08/18/2023","Santo Domingo, Costa Rica",9.985548155,-84.06627499
61,No,Côte d’Ivoire,Abidjan,Research,Colorado School of Public Health,,"Jaenisch, Thomas",,,,,,,"Centre Suisse de Recherche Scientifique, Ivory Coast (Contact: Bonfoh Bassirou)",,,,,,,,,,,,,"Towards an African platform for congenital abnormalities and birth defects: This is a Gates Pilot Grant in the Africa Programme (led by African PI, administered by the AAS)","Abidjan, Côte d’Ivoire",5.3493952,-4.017048
62,No,Cuba,,Education,College of Nursing,,,,,,,,,,,,,,,,,,,,,,International Student Travel. CU Anschutz in Cuba: Intensive Study of Public Health ServicesStart Date: 05/20/2023 - End Date: 05/31/2023,Cuba,22,-79.5
63,No,Dominican Republic,Santo Domingo,Research,College of Nursing,,"Samantha Stonbraker, PhD, MPH, RN",,,,,,,Clinica de Familia La Romana Dominican Republic,,,,,,,,,,,,,"No Cost Extension R00NR017829, Clinica de Familia La Romana Dominican Republic; Consultant, Clinica de Familia La Romana Dominican Republic; Collaborator, United States Agency for International Development (USAID) HIV Services and Systems Strengthening Project. Santo Domingo, Dominican Republic; Also, potential for PhD and DNP student engagement","Santo Domingo, Dominican Republic",18.4720187,-69.9020309
64,No,Dominican Republic,San Juan,Research,School of Medicine,Pediatrics,Sandra Luna-Fineman,,,,,,,,,,,,,,,,,,,,"Support as a mentor on the Implementation of standard therapies for childhood cancers: retinoblastoma, Hodgkin lymphoma, Wilms tumor, neuroblastoma, rhabdomyosarcoma, Burkitt lymphoma","San Juan, Dominican Republic",18.8090218,-71.2372423
65,No,Dominican Republic,San Juan,Education,School of Medicine,Pediatrics,Sandra Luna-Fineman,,,,,,,AHOPCA: Central American Association of Pediatric Hematology-Oncology and GALOP (Grupo America Latina de Oncologia Pediatrica),,,,,,,,,,,,,Prospective treatment of retinoblastoma. Protocols 1 and 2 completed. Now designing and writing AHOPCA 3 Retinoblastoma that will incorporate other countries,"San Juan, Dominican Republic",18.8090218,-71.2372423
66,No,Dominican Republic,San Juan,Service/Clinical,School of Medicine,Pediatrics,Sandra Luna-Fineman,,,,,,,AHOPCA: Central American Association of Pediatric Hematology-Oncology and GALOP (Grupo America Latina de Oncologia Pediatrica),,,,,,,,,,,,,Prospective treatment of retinoblastoma. Protocols 1 and 2 completed. Now designing and writing AHOPCA 3 Retinoblastoma that will incorporate other countries,"San Juan, Dominican Republic",18.8090218,-71.2372423
67,No,Dominican Republic,San Juan,Service/Clinical,School of Medicine,Pediatrics,Sandra Luna-Fineman,,,,,,,"GALOP Argentina, GRACCO Brazil",,,,,,,,,,,,,"Online Retinoblastoma tumor board, meets weekly.","San Juan, Dominican Republic",18.8090218,-71.2372423
68,No,Ecuador,Quito,Education,Colorado School of Public Health,Epidemiology,David Rojas (CSU),,,,,,,Pan American Health Organization,,,,,,,,,,,,,Salud Urbana,"Quito, Ecuador",-0.214945,-78.5132
69,No,Ecuador,Quito,Education,Colorado School of Public Health,Epidemiology,Chris Melby (CSU),,,,,,,Universidad San Francisco de Quito,,,,,,,,,,,,,I give seminars and consult on a research project on the nutrition transition in Ecuador with colleagues in the School of Public at the Universidad San Francisco de Quito,"Quito, Ecuador",-0.214945,-78.5132
70,No,Ecuador,Guayaquil,Service/Clinical,Colorado School of Public Health,,,,,,,,,"Sosecali Non for Profit in Guayaquil, Ecuador (Contact: Carmen Soria)",,,,,,,,,,,,,"This is a project funded by the Eur. Commission, focused on preparedness of infectious disease cohorts in LMIC","Guayaquil, Ecuador",-2.147634,-79.9417504
71,No,Ecuador,,Education,Skaggs School of Pharmacy and Pharmaceutical Sciences,,,,,,,,,Spanish for Pharmacists APPE,,,,,,,,,,,,,Affiliation Agreement,Ecuador,-1.428836291,-78.77523855
72,No,Egypt,Cairo,Education,Skaggs School of Pharmacy and Pharmaceutical Sciences,,Jodie Malhotra/Kari Franson,,,,,,,Children's Cancer Hospital Egypt,,,,,,,,,,,,,"Education exchange, Affiliation Agreement","Cairo, Egypt",30.0434879,31.2352919
73,No,Egypt,Cairo,Education,Skaggs School of Pharmacy and Pharmaceutical Sciences,Clinical Pharmacy,Douglas Fish,,,,,,,Several Universities in Egypt,,,,,,,,,,,,,"Egyptian Anti-Infective Stewardship Program. Volunteer consultant, developer and provider of educational programming for a national program focused on antimicrobial stewardship in Egypt. The program was a partnership between the Egyptian Ministry of Health and Population based in Cairo, several universities and state-funded hospitals, and the pharmaceutical industry. The program ran a seriesof programs in 2021-22 and is currently developing a second round of programming for 2024.","Cairo, Egypt",30.0434879,31.2352919
74,No,Egypt,Cairo,Education,Skaggs School of Pharmacy and Pharmaceutical Sciences,Clinical Pharmacy,,,,,,,,,,,,,,,,,,,,,"International Student Travel. Cairo, Egypt (Africa) Start Date: 03/28/2022 - End Date: 05/08/2022","Cairo, Egypt",30.0434879,31.2352919
75,No,El Salvador,San Salvador,Research,School of Medicine,Pediatrics,Sandra Luna-Fineman,,,,,,,,,,,,,,,,,,,,"Support as a mentor on the Implementation of standard therapies for childhood cancers: retinoblastoma, Hodgkin lymphoma, Wilms tumor, neuroblastoma, rhabdomyosarcoma, Burkitt lymphoma","San Salvador, El Salvador",13.69841,-89.19235
76,No,El Salvador,San Salvador,Education,School of Medicine,Pediatrics,Sandra Luna-Fineman,,,,,,,AHOPCA: Central American Association of Pediatric Hematology-Oncology and GALOP (Grupo America Latina de Oncologia Pediatrica),,,,,,,,,,,,,Prospective treatment of retinoblastoma. Protocols 1 and 2 completed. Now designing and writing AHOPCA 3 Retinoblastoma that will incorporate other countries,"San Salvador, El Salvador",13.69841,-89.19235
77,No,El Salvador,San Salvador,Service/Clinical,School of Medicine,Pediatrics,Sandra Luna-Fineman,,,,,,,AHOPCA: Central American Association of Pediatric Hematology-Oncology and GALOP (Grupo America Latina de Oncologia Pediatrica),,,,,,,,,,,,,Prospective treatment of retinoblastoma. Protocols 1 and 2 completed. Now designing and writing AHOPCA 3 Retinoblastoma that will incorporate other countries,"San Salvador, El Salvador",13.69841,-89.19235
78,No,El Salvador,San Salvador,Service/Clinical,School of Medicine,Pediatrics,Sandra Luna-Fineman,,,,,,,"GALOP Argentina, GRACCO Brazil",,,,,,,,,,,,,"Online Retinoblastoma tumor board, meets weekly.","San Salvador, El Salvador",13.69841,-89.19235
79,No,El Salvador,,Research,Skaggs School of Pharmacy and Pharmaceutical Sciences,Pharmaceutical Sciences,Jared M. Brown,,,,,,,,,,,,,,,,,,,,"Working with multiple countries and clinicians on biopsies and sample collection including El Salvador, Mexico, India and Thailand",El Salvador,13.73346847,-88.86567455
80,No,Ethiopia,Tepi,Education,Colorado School of Public Health,,Margo Harrison,,,,,,,Mizan Tepi University Teaching Hospital,,,,,,,,,,,,,,"Tepi, Ethiopia",7.1982407,35.4243907
81,No,Ethiopia,,Research,Colorado School of Public Health,,Jon Samet,,,,,,,,,,,,,,,,,,,,"GEOHealth Hub for Eastern Africa: NIH-funded regional center for research and training on environmental and occupational health with focus on air pollution and heat stress. Includes Ethiopia, Uganda, and Kenya as main sites with additional training sites",Ethiopia,8.619088938,39.64475013
82,No,Ethiopia,Addis Ababa,Education,School of Medicine,,,,,,,,,,,,,,,,,,,,,,"GME Resident International Elective (pending). Addis Ababa, Ethiopia (Africa) Start Date: 01/07/2023 - End Date: 01/21/2023","Addis Ababa, Ethiopia",9.0331385,38.7500769
83,No,Ethiopia,,Education,School of Medicine,Emergency Med,Emilie J. Calvello Hines,,,,,,,As Needed,,,,,,,,,,,,,"Disaster relief, tied with WHO and African Federation for Emergency Medicine. Https://coloradoglobalem.org. Other major activities: fellowship, robust resident track, attending opportunities",Ethiopia,8.619088938,39.64475013
84,No,Ethiopia,Addis Ababa,Education,Skaggs School of Pharmacy and Pharmaceutical Sciences,,,,,,,,,,,,,,,,,,,,,,Affiliation Agreement,"Addis Ababa, Ethiopia",9.0331385,38.7500769
85,No,Fiji,Suva,Education,School of Medicine,GME,,,,,,,,,,,,,,,,,,,,,"International Student Travel. Suva, Fiji (Australia/Pacific Islands) Start Date: 09/27/2022 - End Date: 10/21/2022","Suva, Fiji",-18.1433693,178.4371712
86,No,Finland,,Research,Colorado School of Public Health,,Norris (PI: Marian Rewers),,,,,,,,,,,,,,,,,,,,"Multi-national Prospective Cohort study for the development of islet autoimmunity and type 1 diabetes in at-risk children. Sites in Finland, Sweden, Germany and the US.",Finland,64.5225128,26.15883438
87,No,France,Lyon,Education,School of Medicine,GME,,,,,,,,,,,,,,,,,,,,,"International Student Travel. Lyon, France (Europe) Start Date: 08/27/2022 - End Date: 09/03/2022","Lyon, France",45.76950679,4.8300814
88,No,French Polynesia,Papeete,Service/Clinical,Colorado School of Public Health,,Thomas Jaenisch,,,,,,,"Institut Louis Malarde, Papeete, Tahiti, French Polynesia (Contact: Van Mai Lormeau)",,,,,,,,,,,,,"This is a project funded by the Eur. Commission, focused on preparedness of infectious disease cohorts in LMIC","Papeete, French Polynesia",-17.5372634,-149.5660301
89,No,French Polynesia,Papeete,Service/Clinical,Colorado School of Public Health,,,,,,,,,"Institut Louis Malarde, Papeete, Tahiti, French Polynesia (Contact: Van Mai Lormeau)",,,,,,,,,,,,,"This is a project funded by the Eur. Commission, focused on preparedness of infectious disease cohorts in LMIC","Papeete, French Polynesia",-17.5372634,-149.5660301
90,No,Germany,,Education,College of Nursing,,Krista Neu,,,,,,,LANDSTUHL REGIONAL MEDICAL CENTER,,,,,,,,,,,,,,Germany,51.11063105,10.39227793
91,No,Germany,,Research,Colorado School of Public Health,,Norris (PI: Marian Rewers),,,,,,,,,,,,,,,,,,,,"Multi-national Prospective Cohort study for the development of islet autoimmunity and type 1 diabetes in at-risk children. Sites in Finland, Sweden, Germany and the US.",Germany,51.11063105,10.39227793
92,No,Germany,,Education,Skaggs School of Pharmacy and Pharmaceutical Sciences,,,,,,,,,Apotheke im Hauptbahnhof,,,,,,,,,,,,,Affiliation Agreement,Germany,51.11063105,10.39227793
93,No,Ghana,Cape Coast,Education,Colorado School of Public Health,Environmental and Occ Hlth,"Jodie Malhotra, used to be Kari Franson",,,,,,,UNIVERSITY OF CAPE COAST COLLEGE OF HEALTH AND ALLIED SCIENCES,,,,,,,,,,,,,Education exchange,"Cape Coast, Ghana",5.121847,-1.2718277
94,No,Ghana,Accra,Education,Colorado School of Public Health,Environmental and Occ Hlth,,,,,,,,,,,,,,,,,,,,,"Accra, Ghana (Africa) Start Date: 02/13/2022 - End Date: 03/29/2022","Accra, Ghana",5.5547232,-0.2209723
95,No,Ghana,Accra,Education,Colorado School of Public Health,Environmental and Occ Hlth,Elizabeth Carlton,,,,,,,The Noguchi Memorial Institute for Medical Research at the University of Ghana,,,,,,,,,,,,,,"Accra, Ghana",5.5547232,-0.2209723
96,No,Ghana,,Education,School of Medicine,Emergency Med,Emilie J. Calvello Hines,,,,,,,As Needed,,,,,,,,,,,,,"Disaster relief, tied with WHO and African Federation for Emergency Medicine. Https://coloradoglobalem.org. Other major activities: fellowship, robust resident track, attending opportunities",Ghana,7.980995107,-1.249772342
97,No,Ghana,,Service/Clinical,Skaggs School of Pharmacy and Pharmaceutical Sciences,,,,,,,,,VRA Hospital,,,,,,,,,,,,,Affilation Agreement,Ghana,7.980995107,-1.249772342
98,No,Greece,,Education,Skaggs School of Pharmacy and Pharmaceutical Sciences,,Assistant Dean Kimberly Stultz,,,,,,,,,,,,,,,,,,,,"Our Program offers ELPD students an opportunity to go international for a 6-week rotation if desired. Covid hampered this program for a few years, but the class of 2024 is back in normal with travel and opportunity. We don't have a set partnering instituion, and we have sent students to recurring sites and ""one-off"" sites in the past. We work with the Campus Global Services to ensure the students are follwoing campus travel guidelines as far as allowed locations and submitting the application so that campus knows when and where they are going and with whom they are rotating with. The class of 2024 has 17 students completing an international rotation in 10 different countries this year. We are working on building a network of known collaborative sites and offering those, versus networking ""one-off"" sites every year. The ten countries represented by this class cohort are Australia, Canada, Costa Rica, Greece, South Korea, Guatemala, New Zealand, Ireland and Japan.",Greece,39,22
99,No,Greece,Patras,Education,Skaggs School of Pharmacy and Pharmaceutical Sciences,,,,,,,,,University of Patras,,,,,,,,,,,,,Affiliation Agreement,"Patras, Greece",38.2462143,21.7350693
100,No,Greece,Patras,Education,Skaggs School of Pharmacy and Pharmaceutical Sciences,,,,,,,,,University of Patras,,,,,,,,,,,,,"International Student Travel. Patras, Greece (Europe) Start Date: 01/05/2022 - End Date: 02/20/2022","Patras, Greece",38.2462143,21.7350693
101,No,Guatemala,,Research,College of Nursing,,Rosario Medina,,,,,,,Fundacion Para la Salud Integral de los Guatemaltecos,,,,,,,,,,,,,"Impact of provider cultural humility on patient outcomes; Grad: FNP, WHNP, Midwifery,Pediatrics, Mental Health, Adult Gero & Acute Care NPs",Guatemala,14.64198,-90.51324
102,No,Guatemala,Trifinio,Education,College of Nursing,,Megan Champion G,,,,,,,Fundacion Para la Salud Integral de los Guatemaltecos,,,,,,,,,,,,,Monthly trainings led by CU faculty directed towards learning priorities of the Guatemalan nurses,"Trifinio, Guatemala",14.64198,-90.51324
103,No,Guatemala,Trifinio,Education,College of Nursing,,Jennifer Fisher; Jennifer Daily-Vail,,,,,,,Fundacion Para la Salud Integral de los Guatemaltecos,,,,,,,,,,,,,,"Trifinio, Guatemala",14.64198,-90.51324
104,No,Guatemala,Trifinio,Education,College of Nursing,,Jennifer Rosen,,,,,,,Fundacion Para la Salud Integral de los Guatemaltecos,,,,,,,,,,,,,Curriculum Development for APRNS,"Trifinio, Guatemala",14.64198,-90.51324
105,No,Guatemala,Guatemala City,Education,College of Nursing,,Melisa Jaenisch,,,,,,,Fundacion Para la Salud Integral de los Guatemaltecos,,,,,,,,,,,,,Creciendo Sanos - Nurse home visiting program providing education and basic screenings for pregnant women and new mothers in 12 rural Guatemalan communities.,"Guatemala City, Guatemala",14.64198,-90.51324
106,No,Guatemala,Guatemala City,Education,College of Nursing,,Lyndsay Krisher,,,,,,,Universidad de San Carlos de Guatemala,,,,,,,,,,,,,,"Guatemala City, Guatemala",14.64198,-90.51324
107,No,Guatemala,,Research,College of Nursing,,Butler-Dawson (PI); Jared Brown,,,,,,,,,,,,,,,,,,,,"K01 ES032015 Women's airborne exposure and kidney health in Guatemala. The study is directed at increasing the fundamental understanding of the causes and prevention strategies of chronic kidney disease of unknown origin (CKDu) in Latin America. The studyâ€™s inclusion of examining exposure to particulate matter and its constituents (i.e., heavy metals), organic pollutants, and a renal biomarker of effect among females in Guatemala will advance our ability to identify factors that put individuals at risk for the development of CKDu. It is a ""career development award.""",Guatemala,14.64198,-90.51324
108,No,Guatemala,Coatepeque,Education,College of Nursing,,,,,,,,,FSIG,,,,,,,,,,,,,"Internatonal Student Travel: Coatepeque, Guatemala (Central America and the Caribbean) Start Date: 02/05/2023 - End Date: 02/18/2023","Coatepeque, Guatemala",14.70413,-91.86426
109,No,Guatemala,Retalhuleu,Service/Clinical,Colorado School of Public Health,Center For Global Health,"Asturias, Melisa Jaenisch, Pam Prag",,,,,,,Fundacion Para la Salud Integral de los Guatemaltecos,,,,,,,,,,,,,Creciendo Sanos - Nurse home visiting program providing education and basic screenings for pregnant women and new mothers in 12 rural Guatemalan communities.,"Retalhuleu, Guatemala",14.53611,-91.67778
110,No,Guatemala,Trifinio,Research,Colorado School of Public Health,Community and Behavioral Hlt,Cherewick (PI: Asturias),,,,,,,Fundacion Para la Salud Integral de los Guatemaltecos,,,,,,,,,,,,,"Creciendo Sanos: Research to support program evaluation and quality improvement of malnutrition, mental health, adolescent health programs in Guatemala","Trifinio, Guatemala",14.64198,-90.51324
111,No,Guatemala,Quetzaltenango,Education,Colorado School of Public Health,,,,,,,,,Fundacion Para la Salud Integral de los Guatemaltecos,,,,,,,,,,,,,"International Student Travel. Quetzaltenango, Guatemala (Central America and the Caribbean) Start Date: 06/02/2021 - End Date: 07/20/2021","Quetzaltenango, Guatemala",14.83472,-91.51806
112,No,Guatemala,Guatemala City,Education,Colorado School of Public Health,Ctr for Healthwork and Envir,Mary Moua,,,,,,,Universidad del Valle de Guatemala - Renewal,,,,,,,,,,,,,,"Guatemala City, Guatemala",14.64198,-90.51324
113,No,Guatemala,Fraijanes,Education,Colorado School of Public Health,,,,,,,,,Universidad del Istmo,,,,,,,,,,,,,,"Fraijanes, Guatemala",14.46528,-90.44083
114,No,Guatemala,,Research,Colorado School of Public Health,Center For Global Health,Dr. Daniel Olson,,,,,,,"FSIG (Guatemala), University of the Valley of Guatemala.",,,,,,,,,,,,,"Running 10 projects with varying partners in Guatemala. One example: An observational study evaluating changing anti-DENV IgG seroprevalence and risk factors within an existing farm worker cohort and cross-sectional school-based survey in a dengue-endemic region of southwest Guatemala. Also, Dengue Seroepidemiology in School Aged Children and Agricultural Workers in Guatemala. Also working on SARS-CoV-2, norovirus in maternal-child interface, and infectious disease knowledge.",Guatemala,14.64198,-90.51324
115,No,Guatemala,,Research,Colorado School of Public Health,Center For Global Health,Dr. Edwin Asturias,,,,,,,FSIG,,,,,,,,,,,,,Long Term Cognitive Effects of Infant Microcephaly and Stunting in Preschool and Early School Age Children in Rural Guatemala. Preterm Infant Seroepidemiology Study in Guatemala. SEROTYPE DISTRIBUTION OF STREPTOCOCCUS PNEUMONIA IN COMMUNITY-ACQUIRED PNEUMONIA IN HOSPITALIZED ADULTS â‰¥18 YEARS OF AGE IN THE UNITED STATES,Guatemala,14.64198,-90.51324
116,No,Guatemala,Guatemala City,Education,Colorado School of Public Health,,Meredith Fort (formerly Michele Shiver),,,,,,,Universidad Rafael Landivar,,,,,,,,,,,,,Collaborative Teaching,"Guatemala City, Guatemala",14.64198,-90.51324
117,No,Guatemala,Escuintla,Education,Colorado School of Public Health,,,,,,,,,FSIG,,,,,,,,,,,,,"International Student Travel. Escuintla, Guatemala (Central America and the Caribbean) Start Date: 02/12/2022 - End Date: 02/26/2022","Escuintla, Guatemala",14.3009,-90.78581
118,No,Guatemala,,Research,Colorado School of Public Health,Ctr for Healthwork and Envir,Butler-Dawson (PI),,,,,,,,,,,,,,,,,,,,"K01 ES032015 Women's airborne exposure and kidney health in Guatemala: The study is directed at increasing the fundamental understanding of the causes and prevention strategies of chronic kidney disease of unknown origin (CKDu) in Latin America. The studyâ€™s inclusion of examining exposure to particulate matter and its constituents (i.e., heavy metals), organic pollutants, and a renal biomarker of effect among females in Guatemala will advance our ability to identify factors that put individuals at risk for the development of CKDu. It is a ""career development award.""",Guatemala,14.64198,-90.51324
119,No,Guatemala,,Research,Colorado School of Public Health,Ctr for Healthwork and Envir,"Newman (PI) (CHWE/EHOH) Adgate (EHOH), Butler-Dawson, Dally, Krisher, James, (CHWE/EHOH) Co-I, Schaeffer (CSU) Co-I, Ghosh (Bios) Co-I; R. Johnson (SOM-Renal) Co-I",,,,,,,,,,,,,,,,,,,,"The overall goal of this project is understanding of the causes, mechanisms, and potential strategies for prevention of the international epidemic of chronic kidney disease of unknown origin (CKDu) in females working in agriculture and living in agricultural communities sugarcane workers in Guatemala and Mexico.",Guatemala,14.64198,-90.51324
120,No,Guatemala,Trifinio/Los Encuentros,Service/Clinical,Colorado School of Public Health,Center For Global Health,Melisa Jaenisch and Mirella Barrientos,,,,,,,"FUNSALUD and Peter Durst, AgroAmerica, Rowen Family",,,,,,,,,,,,,"(FUNSALUD)PROGRESAN - Malnutrition community based program serving children 6-59 months old. Provides education and nutritional support to children with actue and chronic malnutrition. Also, FUNSALUD - Provides support for ALMA (maternal mental health), Adolescent mothers, and Ninos Sanos nurse home visiting program for children (0-24 months) providing basic health screening and education.","Trifinio/Los Encuentros, Guatemala",15.58612,-89.78366
121,No,Guatemala,Quetzaltenango,Education,School of Medicine,,Claudia Luna Asturias,,,,,,,Fundacion Para la Salud Integral de los Guatemaltecos,,,,,,,,,,,,,"International Student Travel. Quetzaltenango, Guatemala (Central America and the Caribbean) Start Date: 05/15/2023 - End Date: 08/31/2023","Quetzaltenango, Guatemala",14.83472,-91.51806
122,No,Guatemala,Coatepeque,Education,School of Medicine,GME,,,,,,,,FSIG,,,,,,,,,,,,,"International student travel. Coatepeque, Guatemala (Central America and the Caribbean) Start Date: 03/01/2022 - End Date: 03/30/2022","Coatepeque, Guatemala",14.70413,-91.86426
123,No,Guatemala,Tecpan,Education,School of Medicine,,,,,,,,,,,,,,,,,,,,,,"International Student Travel. Tecpan Guatemala, Guatemala (Latin America) Start Date: 06/01/2023 - End Date: 06/22/2023","Tecpan, Guatemala",14.76181,-90.99247
124,No,Guatemala,Guatemala City,Service/Clinical,School of Medicine,Pediatrics,"Marilyn Manco-Johnston (HTC) and Sandra Luna-Fineman (CCBC, CHCO) (Co-Director",,,,,,,"National Pediatric Oncology Unit, Guatemala City, Guatemala",,,,,,,,,,,,,"Education in Ped non-nmalingant hematology for fellows from National Pediatric Oncology Unit, Guatemala, Guatemala","Guatemala City, Guatemala",14.64198,-90.51324
125,No,Guatemala,Guatemala City,Education,School of Medicine,GME,,,,,,,,,,,,,,,,,,,,,"International Student Travel. Guatemala City, Guatemala (Central America) Start Date: 02/28/2022 - End Date: 03/27/2022","Guatemala City, Guatemala",14.64198,-90.51324
126,No,Guatemala,Guatemala City,Education,School of Medicine,Pediatrics,Sandra Luna-Fineman,,,,,,,"Unidad Nacional de Oncologia Pediatrica (UNOP) and School of Medicine, Universidad Francisco Marroquin",,,,,,,,,,,,,Non-malignant hematology rotation of Hem/Onco fellows from Guatemala (International ACGME accredited institution),"Guatemala City, Guatemala",14.64198,-90.51324
127,No,Guatemala,Guatemala City,Education,School of Medicine,Pediatrics,Sandra Luna-Fineman,,,,,,,"Unidad Nacional de Oncologia Pediatrica (UNOP) and School of Medicine, Universidad Francisco Marroquin",,,,,,,,,,,,,"Solid Tumor Board for diagnosis, management and outcomes, as part of the International ACGME fellowship on Pediatric Hematology/Oncology (q 2 weeks)","Guatemala City, Guatemala",14.64198,-90.51324
128,No,Guatemala,,Research,School of Medicine,Pediatrics,Sandra Luna-Fineman,,,,,,,,,,,,,,,,,,,,"Support as a mentor on the Implementation of standard therapies for childhood cancers: retinoblastoma, Hodgkin lymphoma, Wilms tumor, neuroblastoma, rhabdomyosarcoma, Burkitt lymphoma",Guatemala,14.64198,-90.51324
129,No,Guatemala,,Education,School of Medicine,Pediatrics,Sandra Luna-Fineman,,,,,,,AHOPCA: Central American Association of Pediatric Hematology-Oncology and GALOP (Grupo America Latina de Oncologia Pediatrica),,,,,,,,,,,,,Prospective treatment of retinoblastoma. Protocols 1 and 2 completed. Now designing and writing AHOPCA 3 Retinoblastoma that will incorporate other countries,Guatemala,14.64198,-90.51324
130,No,Guatemala,,Service/Clinical,School of Medicine,Pediatrics,Sandra Luna-Fineman,,,,,,,AHOPCA: Central American Association of Pediatric Hematology-Oncology and GALOP (Grupo America Latina de Oncologia Pediatrica),,,,,,,,,,,,,Prospective treatment of retinoblastoma. Protocols 1 and 2 completed. Now designing and writing AHOPCA 3 Retinoblastoma that will incorporate other countries,Guatemala,14.64198,-90.51324
131,No,Guatemala,,Service/Clinical,School of Medicine,Pediatrics,Sandra Luna-Fineman,,,,,,,"GALOP Argentina, GRACCO Brazil",,,,,,,,,,,,,"Online Retinoblastoma tumor board, meets weekly.",Guatemala,14.64198,-90.51324
132,No,Guatemala,Escuintla,Education,School of Medicine,GME,,,,,,,,,,,,,,,,,,,,,"International Student Travel. Escuintla, Guatemala (Central America and the Caribbean) Start Date: 03/16/2022 - End Date: 03/27/2022","Escuintla, Guatemala",14.3009,-90.78581
133,No,Guatemala,Antigua,Education,School of Medicine,,,,,,,,,,,,,,,,,,,,,,"International Student Travel. Antigua, Guatemala (South America) Start Date: 06/05/2023 - End Date: 08/31/2023","Antigua, Guatemala",14.56111,-90.73444
134,No,Guatemala,,Education,School of Medicine,,Ali Musani and Reem Hana,,,,,,,Partnership with Bicol Clinic Foundation,,,,,,,,,,,,,"Resident, fellow and faculty exchange programs, subspecialty program development, working with Project CURE to establish critical care units, dialysis, and brochoscopy programs",Guatemala,14.64198,-90.51324
135,No,Guatemala,Trifinio,Education,Skaggs School of Pharmacy and Pharmaceutical Sciences,,Assistant Dean Kimberly Stultz,,,,,,,FSIG,,,,,,,,,,,,,"Our Program offers ELPD students an opportunity to go international for a 6-week rotation if desired. Covid hampered this program for a few years, but the class of 2024 is back in normal with travel and opportunity. We don't have a set partnering instituion, and we have sent students to recurring sites and ""one-off"" sites in the past. We work with the Campus Global Services to ensure the students are follwoing campus travel guidelines as far as allowed locations and submitting the application so that campus knows when and where they are going and with whom they are rotating with. The class of 2024 has 17 students completing an international rotation in 10 different countries this year. We are working on building a network of known collaborative sites and offering those, versus networking ""one-off"" sites every year. The ten countries represented by this class cohort are Australia, Canada, Costa Rica, Greece, South Korea, Guatemala, New Zealand, Ireland and Japan.","Trifinio, Guatemala",14.64198,-90.51324
136,No,Guatemala,Guatemala City,Research,Skaggs School of Pharmacy and Pharmaceutical Sciences,,Jodie Malhotra,,,,,,,Universidad de San Carlos de Guatamela,,,,,,,,,,,,,Guatemala - Universidad de San Carlos de Guatamela,"Guatemala City, Guatemala",14.64198,-90.51324
137,No,Guatemala,Trifinio,Education,Skaggs School of Pharmacy and Pharmaceutical Sciences,,CGH,,,,,,,FSIG,,,,,,,,,,,,,Affiliation Agreement; Trifinio Clinic,"Trifinio, Guatemala",14.64198,-90.51324
138,No,Haiti,Port-au-Prince,Education,College of Nursing,,"Pam Prag, Laura Rosenthal",,,,,,,State University of Haiti,,,,,,,,,,,,,CU Faculty teaching FNP students in Haiti remotely,"Port-au-Prince, Haiti",18.54349,-72.33881
139,No,Honduras,Roatan,Education,School of Dental Medicine,,"Bruce Dye, DDS, MPH",,,,,,,Clinica Esperanza Roatan,,,,,,,,,,,,,"Faculty-led international service learning opportunity for dental students to learn about the oral health care delivery system in a low-income country and to participate in service and care delivery in partnership with Clinica Esperanza Roatan (Honduras), a non-profit medical clinic providng care to the underserved.","Roatan, Honduras",16.32257,-86.53545
140,No,Honduras,San Pedro Sula,Education,School of Medicine,GME,,,,,,,,,,,,,,,,,,,,,"International Student Travel. San Pedro Sula, Honduras (Central America) Start Date: 04/22/2023 - End Date: 04/29/2023","San Pedro Sula, Honduras",15.50523,-88.02497
141,No,Honduras,San Pedro Sula,Research,School of Medicine,Pediatrics,Sandra Luna-Fineman,,,,,,,,,,,,,,,,,,,,"Support as a mentor on the Implementation of standard therapies for childhood cancers: retinoblastoma, Hodgkin lymphoma, Wilms tumor, neuroblastoma, rhabdomyosarcoma, Burkitt lymphoma","San Pedro Sula, Honduras",15.50523,-88.02497
142,No,Honduras,San Pedro Sula,Education,School of Medicine,Pediatrics,Sandra Luna-Fineman,,,,,,,AHOPCA: Central American Association of Pediatric Hematology-Oncology and GALOP (Grupo America Latina de Oncologia Pediatrica),,,,,,,,,,,,,Prospective treatment of retinoblastoma. Protocols 1 and 2 completed. Now designing and writing AHOPCA 3 Retinoblastoma that will incorporate other countries,"San Pedro Sula, Honduras",15.50523,-88.02497
143,No,Honduras,San Pedro Sula,Service/Clinical,School of Medicine,Pediatrics,Sandra Luna-Fineman,,,,,,,AHOPCA: Central American Association of Pediatric Hematology-Oncology and GALOP (Grupo America Latina de Oncologia Pediatrica),,,,,,,,,,,,,Prospective treatment of retinoblastoma. Protocols 1 and 2 completed. Now designing and writing AHOPCA 3 Retinoblastoma that will incorporate other countries,"San Pedro Sula, Honduras",15.50523,-88.02497
144,No,Honduras,San Pedro Sula,Service/Clinical,School of Medicine,Pediatrics,Sandra Luna-Fineman,,,,,,,"GALOP Argentina, GRACCO Brazil",,,,,,,,,,,,,"Online Retinoblastoma tumor board, meets weekly.","San Pedro Sula, Honduras",15.50523,-88.02497
145,No,Honduras,Tegucigalpa,Research,School of Medicine,Pediatrics,Sandra Luna-Fineman,,,,,,,,,,,,,,,,,,,,"Support as a mentor on the Implementation of standard therapies for childhood cancers: retinoblastoma, Hodgkin lymphoma, Wilms tumor, neuroblastoma, rhabdomyosarcoma, Burkitt lymphoma","Tegucigalpa, Honduras",14.10576,-87.2042
146,No,Honduras,Tegucigalpa,Education,School of Medicine,Pediatrics,Sandra Luna-Fineman,,,,,,,AHOPCA: Central American Association of Pediatric Hematology-Oncology and GALOP (Grupo America Latina de Oncologia Pediatrica),,,,,,,,,,,,,Prospective treatment of retinoblastoma. Protocols 1 and 2 completed. Now designing and writing AHOPCA 3 Retinoblastoma that will incorporate other countries,"Tegucigalpa, Honduras",14.10576,-87.2042
147,No,Honduras,Tegucigalpa,Service/Clinical,School of Medicine,Pediatrics,Sandra Luna-Fineman,,,,,,,AHOPCA: Central American Association of Pediatric Hematology-Oncology and GALOP (Grupo America Latina de Oncologia Pediatrica),,,,,,,,,,,,,Prospective treatment of retinoblastoma. Protocols 1 and 2 completed. Now designing and writing AHOPCA 3 Retinoblastoma that will incorporate other countries,"Tegucigalpa, Honduras",14.10576,-87.2042
148,No,Honduras,Tegucigalpa,Service/Clinical,School of Medicine,Pediatrics,Sandra Luna-Fineman,,,,,,,"GALOP Argentina, GRACCO Brazil",,,,,,,,,,,,,"Online Retinoblastoma tumor board, meets weekly.","Tegucigalpa, Honduras",14.10576,-87.2042
149,No,Hungary,Szeged,Education,Colorado School of Public Health,,Karen Caplovitz Barrett (CSU),,,,,,,University of Szeged,,,,,,,,,,,,,"Young children's motivation, self-control, and participation in daily activities -- Fullbright Scholarship: Grant from Hungarian Government to Krisztian Jozsa (Barrett is co-PI for International Collaboration). Jozsa is at University of Szeged","Szeged, Hungary",46.2536166,20.1461353
150,No,India,Vellore,Education,Colorado School of Public Health,,Eric Simoes,,,,,,,Christian Medical College Hospital Vellore India & International Asthma Services,,,,,,,,,,,,,,"Vellore, India",12.9214693,79.1315625
151,No,India,Amaravati,Education,Colorado School of Public Health,,Eric Simoes,,,,,,,"Meditation, De-addiction, Health, AIDS, Nutrition Trust",,,,,,,,,,,,,,"Amaravati, India",16.514,80.516
152,No,India,Chennai,Education,Colorado School of Public Health,,,,,,,,,,,,,,,,,,,,,,"International Student Travel. Chennai, India (Asia) Start Date: 06/23/2022 - End Date: 07/28/2022","Chennai, India",13.0720922,80.2018554
153,No,India,Darjeeling,Research,Colorado School of Public Health,Community and Behavioral Hlt,Megan Cherewick,,,,,,,Broadleaf Health and Education Alliance and Darjeeling Ladenla Road Prerna,,,,,,,,,,,,,"Darjeeling Early Adolescent Study and Tealeaf Neurodiversity: Mixed-methods study of protective and promotive factors for mental health and wellbeing among early adolescents ages 10-14 in Darjeeling, India. Partnered with Broadleaf Health and Education Alliance and Darjeeling Ladenla Road Prerna. ALSO, Design of a school-teacher training in neurodiversity to empower teachers to support autistic and neurodiverse children in Darjeeling, India Partned with University of North Carolina, Broadleaf Health and Education Alliance and Darjeeling Ladenla Road Prerna","Darjeeling, India",26.85324541,88.2665909
154,No,India,Darjeeling,Research,Colorado School of Public Health,,Michael Matergia (PI) and Molly Lamb,,,,,,,"Darjeeling, India",,,,,,,,,,,,,"Child health education and monitoring in schools; pediatric mental health in Darjeeling, India","Darjeeling, India",26.85324541,88.2665909
155,No,India,,Education,Colorado School of Public Health,Center For Global Health,Dr. Stephen Berman,,,,,,,Broadleaf Health and Education Alliance,,,,,,,,,,,,,Working with Broadleaf Health and Edu Alliance (incorp in the State of Pennsylvania) to unlock human potential in Eastern Himalayas thorough community-led innovations in health and edu.,India,23.37937974,79.44332655
156,No,India,Rishikesh,Education,School of Medicine,GME,,,,,,,,,,,,,,,,,,,,,"International Student Travel. Rishikesh, India (Asia) Start Date: 02/26/2023 - End Date: 03/26/2023","Rishikesh, India",30.1077,78.287804
157,No,India,Delhi,Education,School of Medicine,,Ali Musani and Reem Hana,,,,,,,All India Institute of Medical Sciences; partnership with Bicol Clinic Foundation,,,,,,,,,,,,,"Resident, fellow and faculty exchange programs, subspecialty program development, working with Project CURE to establish critical care units, dialysis, and brochoscopy programs","Delhi, India",28.6324252,77.218791
158,No,India,Mumbai,Education,Skaggs School of Pharmacy and Pharmaceutical Sciences,,,,,,,,,Danashmand Organic Pvt Ltd,,,,,,,,,,,,,Affiliation agreement with Danashmand Organic Pvt Ltd,"Mumbai, India",18.9690472,72.8211807
159,No,Indonesia,Banjarmasin,Education,Colorado School of Public Health,,Dr. Stephen Berman,,,,,,,Lambung Mangkurat University,,,,,,,,,,,,,,"Banjarmasin, Indonesia",-3.316819,114.5896233
160,No,Indonesia,Banjarbaru,Education,Colorado School of Public Health,,Dr. Stephen Berman,,,,,,,Lambung Mangkurat University,,,,,,,,,,,,,,"Banjarbaru, Indonesia",-3.4407077,114.7439269
161,No,Indonesia,Ambon Maluku,Education,Colorado School of Public Health,,Dr. Stephen Berman,,,,,,,Pattimura University,,,,,,,,,,,,,,"Ambon Maluku, Indonesia",-3.694426,128.181299
162,No,Indonesia,Banda Aceh,Education,Colorado School of Public Health,,Dr. Stephen Berman,,,,,,,Syiah Kuala University,,,,,,,,,,,,,,"Banda Aceh, Indonesia",5.5535597,95.3176803
163,No,Indonesia,West Nusa Tenggara,Education,Colorado School of Public Health,,Dr. Stephen Berman,,,,,,,University of Mataram,,,,,,,,,,,,,,"West Nusa Tenggara, Indonesia",-8.606654465,117.5072283
164,No,Ireland,Dublin,Education,Skaggs School of Pharmacy and Pharmaceutical Sciences,,Jodie Malhotra (formerly Kari Franson),,,,,,,"University of Dublin, Trinity College of Dublin",,,,,,,,,,,,,"Education Exchange w/University of Dublin, Trinity College of Dublin","Dublin, Ireland",53.3440956,-6.2674862
165,No,Ireland,Dublin,Education,Skaggs School of Pharmacy and Pharmaceutical Sciences,,,,,,,,,Mercy University Hospital Cork and Trinity College,,,,,,,,,,,,,"Ireland - Trinity College, University Hospital Galway, and Mercy University Hospital Cork - Pharmacy Department","Dublin, Ireland",53.3440956,-6.2674862
166,No,Ireland,Galway,Education,Skaggs School of Pharmacy and Pharmaceutical Sciences,,,,,,,,,Mercy University Hospital Cork and Trinity College,,,,,,,,,,,,,"Ireland - Trinity College, University Hospital Galway, and Mercy University Hospital Cork - Pharmacy Department","Galway, Ireland",53.2737969,-9.0517799
167,No,Ireland,Cork,Education,Skaggs School of Pharmacy and Pharmaceutical Sciences,,,,,,,,,Mercy University Hospital Cork and Trinity College,,,,,,,,,,,,,"Ireland - Trinity College, University Hospital Galway, and Mercy University Hospital Cork - Pharmacy Department","Cork, Ireland",51.8978719,-8.4710874
168,No,Ireland,Galway,Education,Skaggs School of Pharmacy and Pharmaceutical Sciences,,,,,,,,,,,,,,,,,,,,,,"International Student Travel. Galway, Ireland (Europe) Start Date: 04/02/2023 - End Date: 05/13/2023","Galway, Ireland",53.2737969,-9.0517799
169,No,Ireland,,Education,Skaggs School of Pharmacy and Pharmaceutical Sciences,,Assistant Dean Kimberly Stultz,,,,,,,,,,,,,,,,,,,,"Our Program offers ELPD students an opportunity to go international for a 6-week rotation if desired. Covid hampered this program for a few years, but the class of 2024 is back in normal with travel and opportunity. We don't have a set partnering instituion, and we have sent students to recurring sites and ""one-off"" sites in the past. We work with the Campus Global Services to ensure the students are follwoing campus travel guidelines as far as allowed locations and submitting the application so that campus knows when and where they are going and with whom they are rotating with. The class of 2024 has 17 students completing an international rotation in 10 different countries this year. We are working on building a network of known collaborative sites and offering those, versus networking ""one-off"" sites every year. The ten countries represented by this class cohort are Australia, Canada, Costa Rica, Greece, South Korea, Guatemala, New Zealand, Ireland and Japan.",Ireland,53.17587985,-8.146006147
170,No,Ireland,Cork,Education,Skaggs School of Pharmacy and Pharmaceutical Sciences,,,,,,,,,,,,,,,,,,,,,,"International Student Travel. Cork, Ireland (Europe) Start Date: 08/20/2023 - End Date: 10/01/2023","Cork, Ireland",51.8978719,-8.4710874
171,No,Ireland,Dublin,Education,Skaggs School of Pharmacy and Pharmaceutical Sciences,,,,,,,,,,,,,,,,,,,,,,"International Student Travel. Dublin, Ireland (Europe) Start Date: 03/27/2022 - End Date: 05/07/2022","Dublin, Ireland",53.3440956,-6.2674862
172,No,Israel,Hedera,Education,Skaggs School of Pharmacy and Pharmaceutical Sciences,,,,,,,,,Beit-mirkachat,,,,,,,,,,,,,Affiliation Agreement with Israel - Beit-mirkachat (The president's Pharmacy) and Nanobioengineering Lab,"Hedera, Israel",32.4374056,34.9256168
173,No,Italy,Padua,Research,Colorado School of Public Health,Epidemiology,Stephen Aichele (CSU),,,,,,,"University of Padova, IT",,,,,,,,,,,,,"Unfunded collaboration. Co-PI @University of Padova, IT","Padua, Italy",45.4095409,11.8765508
174,No,Italy,Florence,Research,Colorado School of Public Health,,Andrew Seidl (CSU),,,,,,,"Florence, IT",,,,,,,,,,,,,"Food and Resource Economics in Florence, Italy. https://myedabroad.colostate.edu/index.cfm?FuseAction=Programs.ViewProgramAngular&id=11972","Florence, Italy",43.7686976,11.2569291
175,No,Italy,Rome,Education,School of Medicine,GME,,,,,,,,,,,,,,,,,,,,,"International Student Travel. Rome, Italy (Europe) Start Date: 10/08/2021 - End Date: 10/21/2021","Rome, Italy",41.8905568,12.4942679
176,No,Italy,Sorrento,Education,School of Medicine,GME,,,,,,,,,,,,,,,,,,,,,"International Student Travel: Sorrento, Italy (Europe) Start Date: 10/17/2022 - End Date: 10/29/2022","Sorrento, Italy",40.6263211,14.3757383
177,No,Italy,Napoli,Research,Skaggs School of Pharmacy and Pharmaceutical Sciences,Pharmaceutical Sciences,Rajesh Agarwal,,,,,,,"University of Napoli Federico II, Complesso Universitario",,,,,,,,,,,,,"An ongoing (for several years) active collaboration with Prof. Giovanni Di Fabio, Professor of Organic Chemistry, Department of Chemical Sciences, University of Napoli Federico II, Complesso Universitario Monte S. Angelo, Via Cintia 4, I-80126 Napoli, Italy. As a chemist, his program synthesizes derivatives of natural products including silibinin (the compound Agarwal lab has worked over 30 years) and Agarwal program at SSPPS evaluates their anticancer activity in several epithelial cancers.","Napoli, Italy",40.8399833,14.2525421
178,No,Japan,,Education,College of Nursing,,Pam Prag,,,,,,,,,,,,,,,,,,,,Academic support through guest lectures; potential for student exchange at the MS/PhD level; collaboration with in-country nursing program,Japan,36.655227,139.271495
179,No,Japan,,Education,Skaggs School of Pharmacy and Pharmaceutical Sciences,,Assistant Dean Kimberly Stultz,,,,,,,,,,,,,,,,,,,,"Our Program offers ELPD students an opportunity to go international for a 6-week rotation if desired. Covid hampered this program for a few years, but the class of 2024 is back in normal with travel and opportunity. We don't have a set partnering instituion, and we have sent students to recurring sites and ""one-off"" sites in the past. We work with the Campus Global Services to ensure the students are follwoing campus travel guidelines as far as allowed locations and submitting the application so that campus knows when and where they are going and with whom they are rotating with. The class of 2024 has 17 students completing an international rotation in 10 different countries this year. We are working on building a network of known collaborative sites and offering those, versus networking ""one-off"" sites every year. The ten countries represented by this class cohort are Australia, Canada, Costa Rica, Greece, South Korea, Guatemala, New Zealand, Ireland and Japan.",Japan,36.655227,139.271495
180,No,Japan,Shizuoka,Education,Skaggs School of Pharmacy and Pharmaceutical Sciences,,,,,,,,,Japan - Shizuoka General Hospital,,,,,,,,,,,,,Japan - Shizuoka General Hospital,"Shizuoka, Japan",34.97515624,138.3832445
181,No,Kenya,Nairobi,Research,Colorado School of Public Health,Center For Global Health,May Chu,,,,,,,Wellcome-KEMRI,,,,,,,,,,,,,"African Serosurveillance Project on Endemic and New Infectious Diseases (ASPEN-ID): Working with BMGF on realizing a global serosurveillance scheme for determining prevalence of antibodies for insight into vaccine protection, diagnostic testing and research. Pilot project underway in Kenya (Wellcome-KEMRI), Malawi (Wellcome-Blantyre), South Africa (NICD) and Sierra Leone (Mercy Hospital).","Nairobi, Kenya",-1.2857857,36.8200253
182,No,Kenya,Nairobi,Education,Colorado School of Public Health,,,,,,,,,,,,,,,,,,,,,,"International Student Travel. Nairobi, Kenya (Africa) Start Date: 05/23/2022 - End Date: 05/29/2022","Nairobi, Kenya",-1.2857857,36.8200253
183,No,Kenya,Naivasha,Education,Colorado School of Public Health,,,,,,,,,,,,,,,,,,,,,,"International Student Travel. Naivasha, Kenya (Africa) Start Date: 10/01/2021 - End Date: 10/08/2021","Naivasha, Kenya",-0.8684399852,36.39029159
184,No,Kenya,Nairobi,Research,Colorado School of Public Health,,Jon Samet,,,,,,,University of Nairobi,,,,,,,,,,,,,"GEOHealth Hub for Eastern Africa: NIH-funded regional center for research and training on environmental and occupational health with focus on air pollution and heat stress. Includes Ethiopia, Uganda, and Kenya as main sites with additional training sites","Nairobi, Kenya",-1.2857857,36.8200253
185,No,Kenya,Nairobi,Research,Colorado School of Public Health,Epidemiology,Jon Samet,,,,,,,"NIH that supports the GEOHealth Hub, centered in Addis Ababa with Addis Ababa University. Makerere University in Kampala, Uganda, and the University of Nairobi, in Nairobi, Kenya. The funding is a subcontract from Columbia to the SPH and it is housed in the Department of Epidemiology",,,,,,,,,,,,,"GEOHealth Hub for Eastern Africa: NIH-funded regional center for research and training on environmental and occupational health with focus on air pollution and heat stress. Includes Ethiopia, Uganda, and Kenya as main sites with additional training sites","Nairobi, Kenya",-1.2857857,36.8200253
186,No,Kenya,Kisii,Education,School of Medicine,,,,,,,,,,,,,,,,,,,,,,"International Student Travel. Kisii, Kenya (Africa) Start Date: 08/21/2023 - End Date: 08/30/2023","Kisii, Kenya",-0.7758142327,34.77700585
187,No,Kenya,Watamu,Education,School of Medicine,,,,,,,,,,,,,,,,,,,,,,"International Student Travel. Watamu, Kenya (Africa) Start Date: 01/30/2023 - End Date: 02/24/2023","Watamu, Kenya",-3.3524945,40.0155608
188,No,Kenya,,Education,School of Medicine,Emergency Med,Emilie J. Calvello Hines,,,,,,,As Needed,,,,,,,,,,,,,"Disaster relief, tied with WHO and African Federation for Emergency Medicine. Https://coloradoglobalem.org. Other major activities: fellowship, robust resident track, attending opportunities",Kenya,0.528430658,37.88969855
189,No,Kenya,,Education,School of Medicine,Emergency Med,Emilie J. Calvello Hines,,,,,,,As Needed,,,,,,,,,,,,,"Disaster relief, tied with WHO . Https://coloradoglobalem.org. Other major activities: fellowship, robust resident track, attending opportunities",Kenya,0.528430658,37.88969855
190,No,Liberia,Monrovia,Research,School of Medicine,,Corey Bills MD MPH (PI),,,,,,,Liberia Ministry of Health,,,,,,,,,,,,,In collaboration with the Ministry of Health Liberia (and the Office of Emergency and Respiratory Care Services) and regional WHO office we partner to strengthen emergency care through community and facility based quality improvement research,"Monrovia, Liberia",6.3103285,-10.806742
191,No,Libya,,Research,Colorado School of Public Health,Epidemiology,David Rojas (CSU),,,,,,,World Bank,,,,,,,,,,,,,Air Pollution Burden of Disease in Libya,Libya,27.04182158,18.03081915
192,No,Malawi,Blantyre,Research,Colorado School of Public Health,Center For Global Health,May Chu,,,,,,,Wellcome-Blantyre,,,,,,,,,,,,,"African Serosurveillance Project on Endemic and New Infectious Diseases (ASPEN-ID): Working with BMGF on realizing a global serosurveillance scheme for determining prevalence of antibodies for insight into vaccine protection, diagnostic testing and research. Pilot project underway in Kenya (Wellcome-KEMRI), Malawi (Wellcome-Blantyre), South Africa (NICD) and Sierra Leone (Mercy Hospital).","Blantyre, Malawi",-15.7862606,35.0095248
193,No,Malaysia,Sarawak,Service/Clinical,Colorado School of Public Health,,Thomas Jaenisch,,,,,,,"University Malaysia Sarawak, Malaysia",,,,,,,,,,,,,"This is a project funded by the Eur. Commission, focused on preparedness of infectious disease cohorts in LMIC","Sarawak, Malaysia",2.586642629,113.2920453
194,No,Malaysia,,Education,Skaggs School of Pharmacy and Pharmaceutical Sciences,,Courtney Koelsch,,,,,,,International Islamic University Malaysia,,,,,,,,,,,,,Education Exchange,Malaysia,2.5,112.5
195,No,Mexico,,Education,Colorado School of Public Health,,,,,,,,,Meixcan Social Security Institute of the United Mexican States,,,,,,,,,,,,,,Mexico,23.95282499,-102.5483534
196,No,Mexico,PÃ¡nuco,Research,Colorado School of Public Health,,"Newman (PI) (CHWE/EHOH) Adgate (EHOH), Butler-Dawson, Dally, Krisher, James, (CHWE/EHOH) Co-I, Schaeffer (CSU) Co-I, Ghosh (Bios) Co-I; R. Johnson (SOM-Renal) Co-I",,,,,,,Pantaleon,,,,,,,,,,,,,"The overall goal of this project is understanding of the causes, mechanisms, and potential strategies for prevention of the international epidemic of chronic kidney disease of unknown origin (CKDu) in females working in agriculture and living in agricultural communities sugarcane workers in Guatemala and Mexico. R01 ES031961 Air pollutants, heat exposure, and kidney health: A longitudinal study in women in Central America","PÃ¡nuco, Mexico",22.0583279,-98.1795256
197,No,Mexico,Jalisco,Research,Colorado School of Public Health,,"Newman(PI), Krisher, Dally (Co-I) CHWE/EOH",,,,,,,International Labor Organization's Vision Zero Fund,,,,,,,,,,,,,"IL-35872-20-75-K â€œA collective action approach to understanding and preventing heat-associated impacts on agricultural worker health and safety in Jalisco, Mexicoâ€. Improving workersâ€™ occupational safety and health in selected supply chains in Mexico â€“ A Vision Zero Fund Project. International Labor Organization, Cooperative Agreement to develop intervention study of heat effects on worker health outcomes.","Jalisco, Mexico",20.58077165,-103.6131719
198,No,Mexico,,Education,Colorado School of Public Health,,,,,,,,,N/A,,,,,,,,,,,,,"International Student Travel. Mexico City, Mexico (Latin America) Start Date: 10/26/2021 - End Date: 11/07/2021|Oaxaca, Mexico (Latin America) Start Date: 10/29/2021 - End Date: 11/02/2021|Mexico City, Mexico (Latin America) Start Date: 12/12/2021 - End Date: 01/23/2022|Mexico City, Mexico (Latin America) Start Date: 02/17/2022 - End Date: 02/19/2022|Oaxaca, Mexico (Latin America) Start Date: 02/19/2022 - End Date: 02/21/2022|Mexico City, Mexico (Latin America) Start Date: 02/21/2022 - End Date: 02/22/2022|Oaxaca, Mexico (Latin America) Start Date: 03/17/2022 - End Date: 03/22/2022|Mexico City, Mexico (Latin America) Start Date: 03/22/2022 - End Date: 03/27/2022|Oaxaca, Mexico (Latin America) Start Date: 04/07/2022 - End Date: 04/10/2022",Mexico,23.95282499,-102.5483534
199,No,Mexico,,Research,Colorado School of Public Health,Epidemiology,David Rojas (CSU),,,,,,,World Health Organization,,,,,,,,,,,,,Health impacts of green space infrastructure in 6 Mexican cities,Mexico,23.95282499,-102.5483534
200,No,Mexico,Mexico City,Research,Skaggs School of Pharmacy and Pharmaceutical Sciences,Pharmaceutical Sciences,Jared M. Brown,,,,,,,Instituto Nacional de Cardiologia Ignacio ChÃ¡vez,,,,,,,,,,,,,"Working with multiple countries and clinicians on biopsies and sample collection including El Salvador, Mexico, India and Thailand","Mexico City, Mexico",19.4326773,-99.1342112
201,No,Nepal,,Education,College of Nursing,,Pam Prag,,,,,,,,,,,,,,,,,,,,collaboration with in-country nursing program,Nepal,28.2591377,83.94416347
202,No,Nepal,Kathmandu,Education,Colorado School of Public Health,,,,,,,,,,,,,,,,,,,,,,"International Student Travel. Kathmandu, Nepal (Asia) Start Date: 08/14/2022 - End Date: 08/31/2022","Kathmandu, Nepal",27.7120171,85.3129501
203,No,Nepal,Dhulikhel,Research,School of Dental Medicine,,"Trevor Williams, PhD",,,,,,,Kathmandu University School of Medical Science (KUSMS) at Dhulikhel Hospital,,,,,,,,,,,,,Oral health and craniofacial defects in Nepal citizens - Dental School Nepal,"Dhulikhel, Nepal",27.6221,85.54281
204,No,Nepal,Kathmandu,Education,School of Medicine,,,,,,,,,,,,,,,,,,,,,,"International Student Travel. Kathmandu, Nepal (Asia) Start Date: 08/04/2022 - End Date: 08/24/2022","Kathmandu, Nepal",27.7120171,85.3129501
205,No,Nepal,Kathmandu,Service/Clinical,School of Medicine,,Ali Musani,,,,,,,Tribhuvan University Hospital/Bicol Clinic Foundation,,,,,,,,,,,,,"Resident, fellow and faculty exchange programs, subspecialty program development, working with Project CURE to establish critical care units, dialysis, and brochoscopy programs","Kathmandu, Nepal",27.7120171,85.3129501
206,No,Nepal,Pokhara,Education,School of Medicine,Radiology,Rustain Morgan,,,,,,,Tribhuvan University (Insitute of Medicine),,,,,,,,,,,,,"4-year resident curriculum; online global health radiology course, remote teaching, conferences and communications with Nepalese counterparts, travel to Nepal, scholarly project","Pokhara, Nepal",28.26689,83.96851
207,No,Nepal,,Education,School of Medicine,Radiology,Erica Pollack,,,,,,,,,,,,,,,,,,,,Partnership with a well-established global health radiology organization with with 2 institutions in Nepal. Partnership with RAD-AID International for work. Contribute to the global grand rounds curriculum of Health4The World,Nepal,28.2591377,83.94416347
208,No,Nepal,Kathmandu,Service/Clinical,School of Medicine,,Cardiac Surgery Nepal Heart Team,,,,,,,Multiple locations,,,,,,,,,,,,,"Coordinate with local NGO for in-country activities; provide clinical support for cardiac surgery in Kathmandu, screen for cardiac diseases in rural Nepal, educate healthcare providers","Kathmandu, Nepal",27.7120171,85.3129501
209,No,Netherlands,Groningen,Education,School of Medicine,GME,,,,,,,,,,,,,,,,,,,,,"International Student Travel. Groningen, Netherlands (Europe) Start Date: 02/04/2024 - End Date: 02/29/2024","Groningen, Netherlands",53.21996245,6.564933974
210,No,Netherlands,,Education,Skaggs School of Pharmacy and Pharmaceutical Sciences,,Michael DiStefano,,,,,,,,,,,,,,,,,,,,Research collaboration with members of Health Technology Assessment International (submitting session proposals for the 2024 HTAi and Priorities in Health conferences). Collaborators are from The Netherlands and Thailand.,Netherlands,52.24937529,5.616126398
211,No,New Zealand,,Education,Skaggs School of Pharmacy and Pharmaceutical Sciences,,Assistant Dean Kimberly Stultz,,,,,,,,,,,,,,,,,,,,"Our Program offers ELPD students an opportunity to go international for a 6-week rotation if desired. Covid hampered this program for a few years, but the class of 2024 is back in normal with travel and opportunity. We don't have a set partnering instituion, and we have sent students to recurring sites and ""one-off"" sites in the past. We work with the Campus Global Services to ensure the students are follwoing campus travel guidelines as far as allowed locations and submitting the application so that campus knows when and where they are going and with whom they are rotating with. The class of 2024 has 17 students completing an international rotation in 10 different countries this year. We are working on building a network of known collaborative sites and offering those, versus networking ""one-off"" sites every year. The ten countries represented by this class cohort are Australia, Canada, Costa Rica, Greece, South Korea, Guatemala, New Zealand, Ireland and Japan.",New Zealand,-42.28723356,172.3434325
212,No,New Zealand,Auckland,Education,Skaggs School of Pharmacy and Pharmaceutical Sciences,,,,,,,,,,,,,,,,,,,,,,"International Student Travel. .Auckland, New Zealand (Australia/Pacific Islands) Start Date: 01/07/2024 - End Date: 02/18/2024","Auckland, New Zealand",-36.84837878,174.7643818
213,No,New Zealand,Auckland,Education,Skaggs School of Pharmacy and Pharmaceutical Sciences,,,,,,,,,"New Zealand - Mt. Eden Pharmacy/Pharmacy 455, Selwyn Village Pharmacy",,,,,,,,,,,,,"Affiliation Agreement with New Zealand - Mt. Eden Pharmacy/Pharmacy 455, Selwyn Village Pharmacy","Auckland, New Zealand",-36.84837878,174.7643818
214,No,Nicaragua,Managua,Research,School of Medicine,Pediatrics,Sandra Luna-Fineman,,,,,,,,,,,,,,,,,,,,"Support as a mentor on the Implementation of standard therapies for childhood cancers: retinoblastoma, Hodgkin lymphoma, Wilms tumor, neuroblastoma, rhabdomyosarcoma, Burkitt lymphoma","Managua, Nicaragua",12.13932,-86.26096
215,No,Nicaragua,Managua,Education,School of Medicine,Pediatrics,Sandra Luna-Fineman,,,,,,,AHOPCA: Central American Association of Pediatric Hematology-Oncology and GALOP (Grupo America Latina de Oncologia Pediatrica),,,,,,,,,,,,,Prospective treatment of retinoblastoma. Protocols 1 and 2 completed. Now designing and writing AHOPCA 3 Retinoblastoma that will incorporate other countries,"Managua, Nicaragua",12.13932,-86.26096
216,No,Nicaragua,Managua,Service/Clinical,School of Medicine,Pediatrics,Sandra Luna-Fineman,,,,,,,AHOPCA: Central American Association of Pediatric Hematology-Oncology and GALOP (Grupo America Latina de Oncologia Pediatrica),,,,,,,,,,,,,Prospective treatment of retinoblastoma. Protocols 1 and 2 completed. Now designing and writing AHOPCA 3 Retinoblastoma that will incorporate other countries,"Managua, Nicaragua",12.13932,-86.26096
217,No,Nicaragua,Managua,Service/Clinical,School of Medicine,Pediatrics,Sandra Luna-Fineman,,,,,,,"GALOP Argentina, GRACCO Brazil",,,,,,,,,,,,,"Online Retinoblastoma tumor board, meets weekly.","Managua, Nicaragua",12.13932,-86.26096
218,No,Nicaragua,San Juan del Sur,Education,School of Medicine,,,,,,,,,,,,,,,,,,,,,,"International Student Travel. San Juan del Sur, Nicaragua (Central America) Start Date: 04/08/2023 - End Date: 04/19/2023","San Juan del Sur, Nicaragua",11.22083799,-85.7806264
219,No,Nicaragua,Chichigalpa,Research,Skaggs School of Pharmacy and Pharmaceutical Sciences,,Jared M. Brown,,,,,,,La Isla Network,,,,,,,,,,,,,Working with the La Isla Network on sample collection and studies in Nicaragua on chronic kidney disease,"Chichigalpa, Nicaragua",12.57162,-87.02788
220,No,Nigeria,Lagos,Education,School of Medicine,,,,,,,,,,,,,,,,,,,,,,"International Student Travel. Lagos, Nigeria (Africa) Start Date: 07/17/2023 - End Date: 08/11/2023","Lagos, Nigeria",6.45407,3.39467
221,No,Palua,Koror,Education,School of Medicine,,,,,,,,,,,,,,,,,,,,,,"International Student Travel. Koror, Palau (Australia/Pacific Islands) Start Date: 08/08/2022 - End Date: 09/02/2022","Koror, Palua",7.3437777,134.4846039
222,No,Panama,Panama,Research,School of Medicine,Pediatrics,Sandra Luna-Fineman,,,,,,,,,,,,,,,,,,,,"Support as a mentor on the Implementation of standard therapies for childhood cancers: retinoblastoma, Hodgkin lymphoma, Wilms tumor, neuroblastoma, rhabdomyosarcoma, Burkitt lymphoma","Panama, Panama",8.93960446,-79.97292614
223,No,Panama,Panama,Service/Clinical,School of Medicine,Pediatrics,Sandra Luna-Fineman,,,,,,,"GALOP Argentina, GRACCO Brazil",,,,,,,,,,,,,"Online Retinoblastoma tumor board, meets weekly.","Panama, Panama",8.93960446,-79.97292614
224,No,Panama,Panama,Service/Clinical,School of Medicine,Pediatrics,Sandra Luna-Fineman,,,,,,,,,,,,,,,,,,,,Prospective treatment of retinoblastoma. Protocols 1 and 2 completed. Now designing and writing AHOPCA 3 Retinoblastoma that will incorporate other countries,"Panama, Panama",8.93960446,-79.97292614
225,No,Panama,Panama,Education,School of Medicine,Pediatrics,Sandra Luna-Fineman,,,,,,,,,,,,,,,,,,,,Prospective treatment of retinoblastoma. Protocols 1 and 2 completed. Now designing and writing AHOPCA 3 Retinoblastoma that will incorporate other countries,"Panama, Panama",8.93960446,-79.97292614
226,No,Panama,Panama,Service/Clinical,School of Medicine,Pediatrics,Sandra Luna-Fineman,,,,,,,AHOPCA and Panama,,,,,,,,,,,,,Prospective treatment of neuroblastoma,"Panama, Panama",8.93960446,-79.97292614
227,No,Panama,Panama,Service/Clinical,School of Medicine,Pediatrics,Sandra Luna-Fineman,,,,,,,"Pamana Ped Oncology Institutions (Children's Panama, Children's Chiriqui, Social Security Hospitals, Oncology Insititute)",,,,,,,,,,,,,"implementaton of the WHO Global Initiative for Childhood Cancer (GICC) in Panama (early diagnosis, registry, standardization of care in liquid and solid tumors)","Panama, Panama",8.93960446,-79.97292614
228,No,Panama,Panama,Service/Clinical,School of Medicine,Pediatrics,Sandra Luna-Fineman,,,,,,,AHOPCA and Panama,,,,,,,,,,,,,Prospective treatment of retinoblastoma using intra-arterial chemotherapy,"Panama, Panama",8.93960446,-79.97292614
229,No,Panama,Panama City,Education,School of Medicine,GME,,,,,,,,,,,,,,,,,,,,,"International Student Travel. Panama City, Panama (Central America) Start Date: 09/02/2023 - End Date: 09/09/2023","Panama City, Panama",8.9673,-79.5339
230,No,Peru,,Education,College of Nursing,,Pam Prag,,,,,,,,,,,,,,,,,,,,"Academic support of new nursing program; faculty engagement through collaborative scholarship activities, interest in development of faculty exchange; potential site for UG Comm/Pop Health clinical immersion, research, DNP student placement",Peru,-10,-76
231,No,Peru,Lima,Education,Colorado School of Public Health,,,,,,,,,Universidad Peruana Cayetano Heredia,,,,,,,,,,,,,,"Lima, Peru",-12.04318,-77.02824
232,No,Peru,Lima,Service/Clinical,Colorado School of Public Health,,Thomas Jaenisch,,,,,,,"Cayetano Heredia University, Lima, Peru (Contacts: Eduardo Gotuzzo, Rodrigo Cachay)",,,,,,,,,,,,,"This is a project funded by the Eur. Commission, focused on preparedness of infectious disease cohorts in LMIC","Lima, Peru",-12.04318,-77.02824
233,No,Peru,Guayakil,Service/Clinical,School of Medicine,Pediatrics,Sandra Luna-Fineman,,,,,,,"GALOP Argentina, GRACCO Brazil",,,,,,,,,,,,,"Online Retinoblastoma tumor board, meets weekly.","Guayakil, Peru",-10,-76
234,No,Peru,Iquitos,Education,School of Medicine,,,,,,,,,,,,,,,,,,,,,,"International Student Travel. Iquitos, Peru (South America) Start Date: 08/24/2023 - End Date: 09/04/2023","Iquitos, Peru",-3.7491508,-73.2594357
235,No,Peru,Quito,Service/Clinical,School of Medicine,Pediatrics,Sandra Luna-Fineman,,,,,,,"GALOP Argentina, GRACCO Brazil",,,,,,,,,,,,,"Online Retinoblastoma tumor board, meets weekly.","Quito, Peru",-7.16996,-79.46357
236,No,Philippines,Manilla,Education,Colorado School of Public Health,,,,,,,,,,,,,,,,,,,,,,"International Student Travel. Manila, Philippines (Asia) Start Date: 06/26/2022 - End Date: 01/23/2023","Manilla, Philippines",14.6042,120.9822
237,No,Philippines,Legaspi,Service/Clinical,School of Medicine,,Ali Musani,,,,,,,Legaspi city Hospital,,,,,,,,,,,,,"Resident, fellow and faculty exchange programs, subspecialty program development, working with Project CURE to establish critical care units, dialysis, and brochoscopy programs","Legaspi, Philippines",13.14125,123.74073
238,No,Puerto Rico,Ponce,Education,School of Medicine,GME,,,,,,,,,,,,,,,,,,,,,"International Student Travel. Ponce, Puerto Rico (North America) Start Date: 01/29/2024 - End Date: 02/28/2024","Ponce, Puerto Rico",18.0126282,-66.6260381
239,No,Puerto Rico,San Juan,Education,Skaggs School of Pharmacy and Pharmaceutical Sciences,,,,,,,,,University of Puerto Rico,,,,,,,,,,,,,Affiliation Agreement with University of Puerto Rico,"San Juan, Puerto Rico",18.466302,-66.105229
240,No,Qatar,Doha,Education,Skaggs School of Pharmacy and Pharmaceutical Sciences,,Jodie Malhotra,,,,,,,"COLLEGE OF PHARMACY 
 
 QATAR UNIVERSITY",,,,,,,,,,,,,,"Doha, Qatar",25.2816415,51.5242998
241,No,Qatar,Doha,Education,Skaggs School of Pharmacy and Pharmaceutical Sciences,,Joseph Saseen,,,,,,,Qatar Primary Health Care Corporation,,,,,,,,,,,,,Ambulatory Care Training Program for Qatar Primary Health Care Corporation. Provided practical and theoretical training of 20 Qatar pharmacists to provide direct patient care in the primary care setting. This was over a 6- month period of time in 2018-2019. We are assessing the impact of these 20 pharmacists on improving disease state management and are submitting an invited proposal to train a second cohort of pharmacists.,"Doha, Qatar",25.2816415,51.5242998
242,No,Qatar,Doha,Education,Skaggs School of Pharmacy and Pharmaceutical Sciences,,,,,,,,,"Qatar - Al Wakra Hospital, Hamad General Hospital and Hamad General Hospital ER",,,,,,,,,,,,,"Affiliation Agreement with Qatar - Al Wakra Hospital, Hamad General Hospital and Hamad General Hospital ER","Doha, Qatar",25.2816415,51.5242998
243,No,Romania,Bucharest,Education,Skaggs School of Pharmacy and Pharmaceutical Sciences,,,,,,,,,Farmacia Catena Corola,,,,,,,,,,,,,Affiliation agreement with Romania - Farmacia Catena Corola - 10 year term,"Bucharest, Romania",44.4355816,26.1022199
244,No,Rwanda,Kigali,Research,Colorado School of Public Health,Epidemiology,MPIs: Maggie Clark / John Vockens,,,,,,,University of Rwanda,,,,,,,,,,,,,"SHEAR is a randomized controlled trial substituting traditional forms of household energy (biomass for cooking and kerosene for lighting) with solar power and liquefied petroleum gas [LPG] stoves in rural Rwanda. Participants will be followed for 3 years with repeated measurements of household air pollution exposure (24-hour fine particulate matter [PM2.5] and black carbon [BC]), energy use, and health. Primary health endpoints will include blood pressure (BP) in adults and lung-function growth in children. Analyses will be conducted in intent-to-treat (ITT) and exposure-response frameworks. To complement the trial, a random-subsidy arm (i.e., random-encouragement design using randomized energy costs) will generate policy-relevant information on causal relationships between energy costs, solar and LPG usage, and air pollution exposures. Partnering institutions are University of Rwanda and MeshPower Ltd.","Kigali, Rwanda",-1.9449562,30.0620453
245,No,Rwanda,Kigali,Education,School of Medicine,Pediatrics,Leana May Moser,,,,,,,University of Health Equity,,,,,,,,,,,,,"Serve as volunteer faculty, helping develop and deliver pediatric curriculum for the medical students","Kigali, Rwanda",-1.9449562,30.0620453
246,No,Rwanda,Kigali,Education,School of Medicine,,,,,,,,,,,,,,,,,,,,,,"International student travel. Kigali, Rwanda (Africa) Start Date: 07/20/2022 - End Date: 09/02/2022","Kigali, Rwanda",-1.9449562,30.0620453
247,No,Saudi Arabia,,Service/Clinical,Colorado School of Public Health,Epidemiology,David Rojas (CSU),,,,,,,World Health Organization,,,,,,,,,,,,,Health and economic impacts of environmental risk factors in 6 Gulf Councill Cooperation Countries,Saudi Arabia,24.12136953,44.54882706
248,No,Senegal,Dakar,Research,Colorado School of Public Health,,Thomas Jaenisch,,,,,,,"Institut Pasteur Dakar, Senegal (Contact: Amadou Sall)",,,,,,,,,,,,,"Reconciliation of Cohort Data for Infectious Diseases. Funded by the European Commission ending in Dec. 2023. This is based out of Heidelberg, Germany. Thomas Jaenisch is the overall PI (wearing Heidelberg hat) and the PI for Colorado. The work in Colorado focusses on harmonization for Serosurveillance and on virtual biorepositories.","Dakar, Senegal",14.6954268,-17.4485785
249,No,Sierra Leone,,Research,Colorado School of Public Health,Center For Global Health,May Chu,,,,,,,Mercy Hospital,,,,,,,,,,,,,"African Serosurveillance Project on Endemic and New Infectious Diseases (ASPEN-ID): Working with BMGF on realizing a global serosurveillance scheme for determining prevalence of antibodies for insight into vaccine protection, diagnostic testing and research. Pilot project underway in Kenya (Wellcome-KEMRI), Malawi (Wellcome-Blantyre), South Africa (NICD) and Sierra Leone (Mercy Hospital).",Sierra Leone,8.558037771,-11.79203178
250,No,Sierra Leone,,Research,Colorado School of Public Health,Center For Global Health,May Chu,,,,,,,,,,,,,,,,,,,,Working through American Public Health Laboratories and the Global Fund in kind as a mentor to create public health laboratory work force capacity buidling . Program is active in Sierra Leone,Sierra Leone,8.558037771,-11.79203178
251,No,Sierra Leone,Njala,Service/Clinical,Colorado School of Public Health,,Thomas Jaenisch,,,,,,,"Njala University, Sierra Leone (Contacts: Rashid Ansumana, Ibrahim Swaray)",,,,,,,,,,,,,"This is a project funded by the Eur. Commission, focused on preparedness of infectious disease cohorts in LMIC","Njala, Sierra Leone",8.1979845,-11.4598426
252,No,Singapore,Singapore,Education,School of Medicine,GME,,,,,,,,,,,,,,,,,,,,,"International Student Travel. Singapore, Singapore (Asia) Start Date: 07/01/2023 - End Date: 07/09/2023","Singapore, Singapore",1.2894365,103.8499802
253,No,Singapore,Singapore,Education,Skaggs School of Pharmacy and Pharmaceutical Sciences,Clinical Pharmacy,Yee Ming Lee,,,,,,,National University of Singapore,,,,,,,,,,,,,"Advanced Pharmacy Practice Experiential in Pharmacogenomics (National University of Singapore, Singapore) - Preceptor who trains visiting pharmacists or PharmD students in pharmacogenomics implementation, providing pharmacogenomics consults and conducting pharmacogenomics research","Singapore, Singapore",1.2894365,103.8499802
254,No,Singapore,Singapore,Education,Skaggs School of Pharmacy and Pharmaceutical Sciences,Clinical Pharmacy,,,,,,,,National University of Singapore,,,,,,,,,,,,,Affiliation Agreement with National University of Singapore,"Singapore, Singapore",1.2894365,103.8499802
255,No,Slovakia,,Education,Skaggs School of Pharmacy and Pharmaceutical Sciences,Clinical Pharmacy,,,,,,,,Slovakia - BIODRUG s.r.o.,,,,,,,,,,,,,Affiliation Agreement with Slovakia - BIODRUG s.r.o.,Slovakia,48.70870209,19.4877492
256,No,Slovakia,,Education,Skaggs School of Pharmacy and Pharmaceutical Sciences,Clinical Pharmacy,,,,,,,,,,,,,,,,,,,,,"International Student Travel. Bratislava, Slovakia (Europe) Start Date: 03/27/2021 - End Date: 05/08/2021",Slovakia,48.70870209,19.4877492
257,No,South Africa,Johannesburg,Research,Colorado School of Public Health,Center For Global Health,May Chu,,,,,,,National Institute for Communicable Diseases,,,,,,,,,,,,,"African Serosurveillance Project on Endemic and New Infectious Diseases (ASPEN-ID): Working with BMGF on realizing a global serosurveillance scheme for determining prevalence of antibodies for insight into vaccine protection, diagnostic testing and research. Pilot project underway in Kenya (Wellcome-KEMRI), Malawi (Wellcome-Blantyre), South Africa (NICD) and Sierra Leone (Mercy Hospital).","Johannesburg, South Africa",-26.201452,28.045488
258,No,South Africa,,Service/Clinical,School of Medicine,Emergency Med,Emilie J. Calvello Hines,,,,,,,As Needed,,,,,,,,,,,,,"Disaster relief, tied with WHO and African Federation for Emergency Medicine. Https://coloradoglobalem.org. Other major activities: fellowship, robust resident track, attending opportunities",South Africa,-28.99718229,25.08504994
259,No,South Africa,Western Cape,Research,School of Medicine,Emergency Med,"Nee-Kofi Mould-Millman, MD PhD MSCS (PI)",,,,,,,"Stellenbosch University, University of Cape Town, Western Cape Government Department of Health, Denver Health, and the U.S. Department of Defense",,,,,,,,,,,,,"The C3 Network seeks to fill gaps in early trauma resuscitation through observational and interventional studies. We lead a research network comprised of 12 ambulance bases, hospitals, and pathology labs in the Western Cape of South Africa. This region has amongst the highest incidence and mortality from trauma in the world. We are funded by 6 U.S. federal government grants. The network enrolls about 5000 patients per year. Key focus areas include hemorrhage and shock therapeutics, traumatic brain injury, complex wounds and infections. Partner organizations include Stellenbosch University, University of Cape Town, Western Cape Government Department of Health, Denver Health, and the U.S. Department of Defense.","Western Cape, South Africa",-33.0586804,20.66964349
260,No,South Africa,Western Cape,Research,School of Medicine,Emergency Med,Adane Wogu,,,,,,,Stellenbosch University,,,,,,,,,,,,,"C3 Global Trauma Network: Cape-Colorado-Combat -- The C3 Global Trauma Network conducts research predominantly in international settings, through clinical trial design, implementation science, and patient-level outcome research to answer questions regarding optimal trauma care.","Western Cape, South Africa",-33.0586804,20.66964349
261,No,South Africa,Stellenbosch,Education,School of Medicine,Emergency Med,David Richards,,,,,,,Stellenbosch University,,,,,,,,,,,,,Medical student clinical and research work in partnership with Stellenbosch University Emergency Medicine since 2006.,"Stellenbosch, South Africa",-33.9353228,18.8553772
262,No,South Africa,Stellenbosch,Education,School of Medicine,,,,,,,,,,,,,,,,,,,,,,"International Student Travel. Stellenbosch, South Africa (Africa) Start Date: 07/20/2023 - End Date: 09/04/2023","Stellenbosch, South Africa",-33.9353228,18.8553772
263,No,South Africa,Cape Town,Education,School of Medicine,,,,,,,,,,,,,,,,,,,,,,"AMC SOM International Elective. Cape Town, South Africa (Africa) Start Date: 07/20/2023 - End Date: 09/04/2023","Cape Town, South Africa",-33.9271093,18.4200603
264,No,South Africa,,Education,School of Medicine,Emergency Med,Emilie J. Calvello Hines,,,,,,,As Needed,,,,,,,,,,,,,"Disaster relief, tied with WHO and African Federation for Emergency Medicine. Https://coloradoglobalem.org. Other major activities: fellowship, robust resident track, attending opportunities",South Africa,-28.99718229,25.08504994
265,No,South Africa,Cape Town,Research,Skaggs School of Pharmacy and Pharmaceutical Sciences,Clinical Pharmacy,Michael DiStefano,,,,,,,University of Western Cape,,,,,,,,,,,,,"Two published papers in 2023 on health technology assessment in South Africa (South Africa co-author, Cape )","Cape Town, South Africa",-33.9271093,18.4200603
266,No,South Korea,Seoul,Education,Skaggs School of Pharmacy and Pharmaceutical Sciences,,Assistant Dean Kimberly Stultz,,,,,,,Severance Hospital - Yonsei University - Seoul,,,,,,,,,,,,,"Our Program offers ELPD students an opportunity to go international for a 6-week rotation if desired. Covid hampered this program for a few years, but the class of 2024 is back in normal with travel and opportunity. We don't have a set partnering instituion, and we have sent students to recurring sites and ""one-off"" sites in the past. We work with the Campus Global Services to ensure the students are follwoing campus travel guidelines as far as allowed locations and submitting the application so that campus knows when and where they are going and with whom they are rotating with. The class of 2024 has 17 students completing an international rotation in 10 different countries this year. We are working on building a network of known collaborative sites and offering those, versus networking ""one-off"" sites every year. The ten countries represented by this class cohort are Australia, Canada, Costa Rica, Greece, South Korea, Guatemala, New Zealand, Ireland and Japan.","Seoul, South Korea",37.566,126.9784
267,No,South Korea,Seoul,Education,Skaggs School of Pharmacy and Pharmaceutical Sciences,,Assistant Dean Kimberly Stultz,,,,,,,Severance Hospital - Yonsei University - Seoul,,,,,,,,,,,,,"International Student Travel. Seoul, South Korea (Asia) Start Date: 08/15/2021 - End Date: 09/25/2021","Seoul, South Korea",37.566,126.9784
268,No,South Korea,Seoul,Education,Skaggs School of Pharmacy and Pharmaceutical Sciences,,Assistant Dean Kimberly Stultz,,,,,,,South Korea - Dream Pharmacy and Severance HospitalYonsei University College of Medicine,,,,,,,,,,,,,Affiliation Agreement with South Korea - Dream Pharmacy and Severance HospitalYonsei University College of Medicine,"Seoul, South Korea",37.566,126.9784
269,No,Spain,Granada,Education,School of Medicine,,Madiha Abdel-Maksoud,,,,,,,,,,,,,,,,,,,,"International Student Travel. Granada, Spain (Europe) Start Date: 10/09/2023 - End Date: 11/03/2023","Granada, Spain",37.1764835,-3.5979371
270,No,Spain,Madrid,Education,Skaggs School of Pharmacy and Pharmaceutical Sciences,,Assistant Dean Kimberly Stultz,,,,,,,Farmacia J. Ramon Goya Ramos - 10 year term,,,,,,,,,,,,,Affiliation Agreement with Farmacia J. Ramon Goya Ramos - 10 year term,"Madrid, Spain",40.4166909,-3.7003454
271,No,Sri Lanka,,Research,Skaggs School of Pharmacy and Pharmaceutical Sciences,,Jared M. Brown,,,,,,,,,,,,,,,,,,,,Working with investigators in Sri Lanka on chronic kidney disease,Sri Lanka,7.617678409,80.69863242
272,No,Sudan,Khartoum,Education,Skaggs School of Pharmacy and Pharmaceutical Sciences,Clinical Pharmacy,"Jodie Malhotra, formerly Kari Franson",,,,,,,University of Kartoum,,,,,,,,,,,,,"The purpose of the agreement will be to expand scholarly ties, facilitate academic cooperation, promote mutual understanding, and specifically, establish a mutually beneficial elective student exchange program between the Parties.","Khartoum, Sudan",15.55177,32.53241
273,No,Sweden,Malmo,Research,Colorado School of Public Health,,Norris (PI: Marian Rewers),,,,,,,"NIH, JDRF, Helmsley Charitable Trust, ADA (and of course the Universities at each of the sites).",,,,,,,,,,,,,"Multi-national Prospective Cohort study for the development of islet autoimmunity and type 1 diabetes in at-risk children. Sites in Finland, Sweden, Germany and the US.","Malmo, Sweden",55.6033166,13.0013362
274,No,Switzerland,Bern,Education,College of Nursing,,Kelly Stamp,,,,,,,Bern University of Applied Sciences (BUAS),,,,,,,,,,,,,"I consulted with the Bern University of Applied Sciences, School of Nursing to start the first adult-gerontology nurse practitioner primary care (AGNP-PC) program in Switzerland in 2019 (when I was with my prior employer). Since moving to CU, I return to Bern to complete evaluations of the program every couple of years. Other ways we collaborate is through student exchanges, faculty collaborations on education programs and presenting/publishing papers on our collaboration. Our plan is to develop more collaborative programs for graduate and doctoral students in the future.","Bern, Switzerland",46.94899859,7.437170775
275,No,Switzerland,Geneva,Education,Colorado School of Public Health,,"Susan Niermeyer, MD, MPH",,,,,,,World Health Organization,,,,,,,,,,,,,"Technical expert with the Maternal, Child Adolescent (MCA) division at WHO Geneva for development and field testing of Essential Newborn Care Course, 2nd edition educational materials.","Geneva, Switzerland",46.21227094,6.126642752
276,No,Switzerland,Basil,Education,School of Medicine,,Madiha Abdel-Maksoud,,,,,,,,,,,,,,,,,,,,"AMC SOM International Elective. Basel, Switzerland (Europe) Start Date: 03/27/2023 - End Date: 05/20/2023","Basil, Switzerland",47.55695923,7.593086695
277,No,Switzerland,Geneva,Research,School of Medicine,,Stephen Aichele (CSU),,,,,,,University of Geneva,,,,,,,,,,,,,"Unfunded collaboration. PI @University of Geneva, CH","Geneva, Switzerland",46.21227094,6.126642752
278,No,Switzerland,Geneva,Education,School of Medicine,GME,"Complex Family Planning - 
 
 Aaron Lazorwitz (former Program Director at time of travel)",,,,,,,World Health Organization,,,,,,,,,,,,,"International Student Travel. Geneva, Switzerland (Europe) Start Date: 11/07/2022 - End Date: 11/18/2022","Geneva, Switzerland",46.21227094,6.126642752
279,No,Switzerland,Geneva,Service/Clinical,School of Medicine,Pediatrics,Sandra Luna-Fineman,,,,,,,"World Health Organization, Geneva, Switerland",,,,,,,,,,,,,Policy Brief - Retinoblastoma,"Geneva, Switzerland",46.21227094,6.126642752
280,No,Switzerland,Geneva,Service/Clinical,School of Medicine,Pediatrics,Sandra Luna-Fineman,,,,,,,"World Health Organization, Geneva, Switerland",,,,,,,,,,,,,Policy Brief - Hodgkin lymphoma,"Geneva, Switzerland",46.21227094,6.126642752
281,No,Switzerland,Geneva,Service/Clinical,School of Medicine,Pediatrics,Sandra Luna-Fineman,,,,,,,"World Health Organization, Geneva, Switerland",,,,,,,,,,,,,Policy Brief - Wilms,"Geneva, Switzerland",46.21227094,6.126642752
282,No,Switzerland,Geneva,Service/Clinical,School of Medicine,Pediatrics,Sandra Luna-Fineman,,,,,,,"World Health Organization, Geneva, Switerland",,,,,,,,,,,,,Policy Brief - Acute lymphblastic leukemia,"Geneva, Switzerland",46.21227094,6.126642752
283,No,Switzerland,Geneva,Service/Clinical,School of Medicine,Pediatrics,Sandra Luna-Fineman,,,,,,,"WHO, International Society of Pediatric Oncology (SIOP), SIOP-E (SIOP Europe)",,,,,,,,,,,,,Designing and writing WHO Chidhood Cancer CureALL Framework: for the Global Initiative for Childhood cancer (GICC),"Geneva, Switzerland",46.21227094,6.126642752
284,No,Taiwan,Taipei,Research,College of Nursing,,"Christina Sun, PhD",,,,,,,National Taiwan University,,,,,,,,,,,,,Conduct interviews with LGBT adults that utilize their photographs to understand continued health disparities. Partnering institutions = National Taiwan University and University of Botswana; Locations = Taiwan and Botswana,"Taipei, Taiwan",25.0384125,121.5637046
285,No,Taiwan,Taipei,Education,Colorado School of Public Health,Community and Behavioral Hlt,Students: Keng-Ling Lay and Pei-Jung Wang; Karen Caplovitz Barrett (CSU),,,,,,,National Taiwan University and Asia University,,,,,,,,,,,,,"Young children's motivation, self-control, and participation in daily activities -- Fullbright scholarship to Keng-Ling Lay and funding from Taiwan to Keng-Ling Lay and to Pei-Jung Wang/ Keng-Ling Lay is at National Taiwan University; Pei-Jung Wang is at Asia University","Taipei, Taiwan",25.0384125,121.5637046
286,No,Taiwan,Taipei,Education,Skaggs School of Pharmacy and Pharmaceutical Sciences,Clinical Pharmacy,Jodie Malhotra,,,,,,,Taipei Medical University,,,,,,,,,,,,,"The purpose of the agreement will be to expand scholarly ties, facilitate academic cooperation, promote mutual understanding, and specifically, establish a mutually beneficial elective student exchange program between the Parties.","Taipei, Taiwan",25.0384125,121.5637046
287,No,Taiwan,Taipei,Education,Skaggs School of Pharmacy and Pharmaceutical Sciences,Clinical Pharmacy,Yee Ming Lee,,,,,,,Taipei Medical University,,,,,,,,,,,,,"Advanced Pharmacy Practice Experiential in Pharmacogenomics (Taipei Medical University, Taiwan) -Preceptor who trains visiting pharmacists or PharmD students in pharmacogenomics implementation, providing pharmacogenomics consults and conducting pharmacogenomics research","Taipei, Taiwan",25.0384125,121.5637046
288,No,Tanzania,Dar Es Salaam,Research,Colorado School of Public Health,Epidemiology,Maggie Clark (CSU),,,,,,,University of Dar es Salaam,,,,,,,,,,,,,"The United Nations Industrial Development Office (UNIDO) and Global Environment Facility (GEF) supported a project to promote bioethanol as an alternative cooking fuel in Tanzania. Following the invitation of UNIDO officials and their consultants with Project Gaia, the Clean Cooking Implementation Science Network (ISN) proposes to use the tools of implementation science and impact evaluation to evaluate this project and to assess impacts on household economics, time use, and fuel consumption in targeted wards in Dar es Salaam. In a subset of households, the ISN also proposes a more intensive sub-study of household air pollution exposure, stove use, and particulate matter chemical composition. The proposed activites will supply the first documented impact evaluation of a large-scale ethanol stove-and-fuel program in relation to environmental, economic, and health-related indicators. These activities will also provide documentation of this unique program roll-out to inform future ethanol scale-up efforts around the world. Partners also include the University of Dar es Salaam, Duke University, and Gettysburg College.","Dar Es Salaam, Tanzania",-6.8149233,39.288409
289,No,Tanzania,Ifakara,Education,School of Medicine,,Amy Akerman,,,,,,,,,,,,,,,,,,,,"International Student Travel. Ifakara, Tanzania (Africa) Start Date: 08/31/2022 - End Date: 10/08/2022","Ifakara, Tanzania",-8.1416407,36.6781798
290,No,Tanzania,,Education,School of Medicine,Emergency Med,Emilie J. Calvello Hines,,,,,,,As Needed,,,,,,,,,,,,,"Disaster relief, tied with WHO and African Federation for Emergency Medicine. Https://coloradoglobalem.org. Other major activities: fellowship, robust resident track, attending opportunities",Tanzania,-6.438400133,34.99532271
291,No,Thailand,Salaya,Education,Colorado School of Public Health,Center For Global Health,Mary Moua (Most likely set up for Eric Simoes),,,,,,,Mahidol University,,,,,,,,,,,,,"MOU between Faculty of Tropical Medicine, Mahidol University and Regents of UC.","Salaya, Thailand",13.802,100.32111
292,No,Thailand,Bangkok,Education,Skaggs School of Pharmacy and Pharmaceutical Sciences,Clinical Pharmacy,Michael DiStefano,,,,,,,"The institutions of the collaborators are Kings College London, Radboud University (Nijmegen, Netherlands), and HITAP in Bangkok, Thailand.",,,,,,,,,,,,,Research collaboration with members of Health Technology Assessment International (submitting session proposals for the 2024 HTAi and Priorities in Health conferences). Collaborators are from The Netherlands and Thailand.,"Bangkok, Thailand",13.7539579,100.5022432
293,No,Thailand,,Research,Skaggs School of Pharmacy and Pharmaceutical Sciences,Pharmaceutical Sciences,Jared M. Brown,,,,,,,,,,,,,,,,,,,,"Working with multiple countries and clinicians on biopsies and sample collection including El Salvador, Mexico, India and Thailand",Thailand,15.11680279,101.0122392
294,No,Thailand,Sichon,Education,Skaggs School of Pharmacy and Pharmaceutical Sciences,,Assistant Dean Kimberly Stultz,,,,,,,Sichon Hospital,,,,,,,,,,,,,Affiliation Agreement with Thailand - Sichon Hospital,"Sichon, Thailand",8.963662523,99.89633701
295,No,Turkey,Adana,Education,School of Dental Medicine,Pediatric Dentistry,"Abdin Hakan Tuncer, DDS",,,,,,,Cukurova University,,,,,,,,,,,,,"Special Care Dentistry training with Cukurova Univ, Adana, Turkey","Adana, Turkey",36.9837199,35.3298202
296,No,Turkey,Gazlantep,Education,School of Dental Medicine,Pediatric Dentistry,"Abdin Hakan Tuncer, DDS",,,,,,,Kalyoncu University,,,,,,,,,,,,,"Developing ccollaboration with Kalyoncu Uinv, Gazlantep, Turkey","Gazlantep, Turkey",37.065842,37.376078
297,No,Turkey,Bagcilar,Education,Skaggs School of Pharmacy and Pharmaceutical Sciences,,,,,,,,,Altinbas University School of Pharmacy,,,,,,,,,,,,,"Affiliation agreement with Bagcilar, Istanbul, Turkey. Altinbas University School of Pharmacy","Bagcilar, Turkey",41.034701,28.857672
298,No,Turkey,Istanbul,Education,Skaggs School of Pharmacy and Pharmaceutical Sciences,,,,,,,,,Altinbas University School of Pharmacy,,,,,,,,,,,,,"Affiliation agreement with Bagcilar, Istanbul, Turkey. Altinbas University School of Pharmacy","Istanbul, Turkey",41.0129952,28.9747973
299,No,Uganda,Kampala,Research,Colorado School of Public Health,Epidemiology,Jon Samet,,,,,,,"NIH that supports the GEOHealth Hub, centered in Addis Ababa with Addis Ababa University. Makerere University in Kampala, Uganda, and the University of Nairobi, in Nairobi, Kenya. The funding is a subcontract from Columbia to the SPH and it is housed in the Department of Epidemiology",,,,,,,,,,,,,"GEOHealth Hub for Eastern Africa: NIH-funded regional center for research and training on environmental and occupational health with focus on air pollution and heat stress. Includes Ethiopia, Uganda, and Kenya as main sites with additional training sites","Kampala, Uganda",0.3156879,32.5781139
300,No,Uganda,Kampala,Education,Colorado School of Public Health,,,,,,,,,,,,,,,,,,,,,,"International Student Travel. Kampala, Uganda (Africa) Start Date: 09/02/2023 - End Date: 09/21/2023","Kampala, Uganda",0.3156879,32.5781139
301,No,Uganda,Mbale,Education,Colorado School of Public Health,,,,,,,,,,,,,,,,,,,,,,"International Student Travel. Mbale, Uganda (Africa) Start Date: 07/31/2023 - End Date: 08/25/2023","Mbale, Uganda",1.0775212,34.1789779
302,No,Uganda,Enetebbe,Education,School of Medicine,GME,Anesthesiology - Rachel Kacmar,,,,,,,CURE Children's Hospital of Uganda,,,,,,,,,,,,,"International Student travel. Entebbe, Uganda (Africa) Start Date: 01/02/2023 - End Date: 01/29/2023","Enetebbe, Uganda",0.05621,32.47949
303,No,Uganda,Kampala,Education,School of Medicine,GME,,,,,,,,,,,,,,,,,,,,,"International Student Travel. Kampala, Uganda (Africa) Start Date: 05/01/2022 - End Date: 05/29/2022","Kampala, Uganda",0.3156879,32.5781139
304,No,Uganda,Mbale,Education,School of Medicine,GME,Colby Simmons,,,,,,,,,,,,,,,,,,,,"International Student Travel. Mbale, Uganda (Africa) Start Date: 03/13/2022 - End Date: 04/15/2022","Mbale, Uganda",1.0775212,34.1789779
305,No,Uganda,Mbale,Service/Clinical,School of Medicine,Pediatrics,Lisa Humphrey,,,,,,,"Mbale Regional Referral Hospital, Mbale Clinical Research Institute, Busitema University, CURE Hospital, Joy Hospice, Casa Uganda Foundation, and Pathways Development Initiative to work on collaborative research, educational, community development and healthcare projects",,,,,,,,,,,,,"Place trainees and faculty to rotate or collaborate with Ugandan partners. Facilitate rotations for 15-20 students, resident, fellows and faculty yearly.","Mbale, Uganda",1.0775212,34.1789779
306,No,Uganda,Mbale,Education,School of Medicine,Emergency Med,Emilie J. Calvello Hines,,,,,,,As Needed,,,,,,,,,,,,,"Disaster relief, tied with WHO and African Federation for Emergency Medicine. Https://coloradoglobalem.org. Other major activities: fellowship, robust resident track, attending opportunities","Mbale, Uganda",1.0775212,34.1789779
307,No,Uganda,Mbale,Service/Clinical,School of Medicine,,Allison Wolfe,,,,,,,Outpatient palliative care team at the regional referral hospital in Mbale,,,,,,,,,,,,,"Outpatient palliative care team at the regional referral hospital in Mbale, consisting of social workers, nurses, community village health volunteers. Inpatient/outpatient program serves as a model for other Ugandan public hospitals","Mbale, Uganda",1.0775212,34.1789779
308,No,Uganda,Mbale,Service/Clinical,School of Medicine,,Colby Simmons,,,,,,,CURE Children's Hospital of Uganda and Mbale Regional Referral Hospital,,,,,,,,,,,,,"Provide clinical care and training workshops, developing 2 retrospective research projects, developing a clinical neurophysiology program. Secured equipment to train technologists in Uganda in intraoperative neurophysiology.","Mbale, Uganda",1.0775212,34.1789779
309,No,Ukraine,Kiev,Research,Colorado School of Public Health,Community and Behavioral Hlt,Cherewick (PI: Ron Dahl),,,,,,,University of California Berkeley,,,,,,,,,,,,,Sleep and Savoring intervention for adolescents in Ukraine: Co-design of a sleep and savoring intervention to promote mental wellbeing and reduce risk for mental health disorders among conflict-affected adolescents in Ukraine. Partnered with University of California Berkeley,"Kiev, Ukraine",50.4497495,30.5237178
310,No,Ukraine,Kyiv,Research,School of Medicine,Emergency Med,"Co-Pis: Adit Ginde, MD MPH; Corey Bills, MD MPH; Ian Stanley PhD, Stacy Trent, MD MSPH",,,,,,,,,,,,,,,,,,,,"While initial funding is pending (DOD) the project focuses on research development in Ukraine with a focus on 3 core elements among civilians affected by war. (1) Infectious Disease: Antimicrobial Resistance Research to Improve Outcomes of Traumatic Wounds (ARROW) focuses on wound infections and related complications (e.g., sepsis, amputation). (2) Psychological Health: Addressing Psychological Health Needs Among Ukrainians During Wartime: Collaborative Approach to Resilience and Empowerment (CARE-Ukraine) focuses on understanding and improving psychological health impacts of war, including PTSD, depression, and suicide. (3) Major Trauma: Facilitating Outcomes Research through Wartime Trauma Registry Development in Ukraine (FORWARD-Ukraine) focuses on developing infrastructure for longitudinal data collection for trauma patients starting on the front lines of eastern Ukraine, through medical evacuation and definitive care in western Ukraine.","Kyiv, Ukraine",50.4497495,30.5237178
311,No,Ukraine,Lviv,Research,School of Medicine,Emergency Med,"Co-Pis: Adit Ginde, MD MPH; Corey Bills, MD MPH; Ian Stanley PhD, Stacy Trent, MD MSPH",,,,,,,,,,,,,,,,,,,,"While initial funding is pending (DOD) the project focuses on research development in Ukraine with a focus on 3 core elements among civilians affected by war. (1) Infectious Disease: Antimicrobial Resistance Research to Improve Outcomes of Traumatic Wounds (ARROW) focuses on wound infections and related complications (e.g., sepsis, amputation). (2) Psychological Health: Addressing Psychological Health Needs Among Ukrainians During Wartime: Collaborative Approach to Resilience and Empowerment (CARE-Ukraine) focuses on understanding and improving psychological health impacts of war, including PTSD, depression, and suicide. (3) Major Trauma: Facilitating Outcomes Research through Wartime Trauma Registry Development in Ukraine (FORWARD-Ukraine) focuses on developing infrastructure for longitudinal data collection for trauma patients starting on the front lines of eastern Ukraine, through medical evacuation and definitive care in western Ukraine.","Lviv, Ukraine",49.839683,24.029717
312,No,Ukraine,Ivano Frankivsk,Research,School of Medicine,Emergency Med,"Co-Pis: Adit Ginde, MD MPH; Corey Bills, MD MPH; Ian Stanley PhD, Stacy Trent, MD MSPH",,,,,,,,,,,,,,,,,,,,"While initial funding is pending (DOD) the project focuses on research development in Ukraine with a focus on 3 core elements among civilians affected by war. (1) Infectious Disease: Antimicrobial Resistance Research to Improve Outcomes of Traumatic Wounds (ARROW) focuses on wound infections and related complications (e.g., sepsis, amputation). (2) Psychological Health: Addressing Psychological Health Needs Among Ukrainians During Wartime: Collaborative Approach to Resilience and Empowerment (CARE-Ukraine) focuses on understanding and improving psychological health impacts of war, including PTSD, depression, and suicide. (3) Major Trauma: Facilitating Outcomes Research through Wartime Trauma Registry Development in Ukraine (FORWARD-Ukraine) focuses on developing infrastructure for longitudinal data collection for trauma patients starting on the front lines of eastern Ukraine, through medical evacuation and definitive care in western Ukraine.","Ivano Frankivsk, Ukraine",48.9182817,24.7199702
313,No,Ukraine,Kharkiv,Research,School of Medicine,Emergency Med,"Co-Pis: Adit Ginde, MD MPH; Corey Bills, MD MPH; Ian Stanley PhD, Stacy Trent, MD MSPH",,,,,,,,,,,,,,,,,,,,"While initial funding is pending (DOD) the project focuses on research development in Ukraine with a focus on 3 core elements among civilians affected by war. (1) Infectious Disease: Antimicrobial Resistance Research to Improve Outcomes of Traumatic Wounds (ARROW) focuses on wound infections and related complications (e.g., sepsis, amputation). (2) Psychological Health: Addressing Psychological Health Needs Among Ukrainians During Wartime: Collaborative Approach to Resilience and Empowerment (CARE-Ukraine) focuses on understanding and improving psychological health impacts of war, including PTSD, depression, and suicide. (3) Major Trauma: Facilitating Outcomes Research through Wartime Trauma Registry Development in Ukraine (FORWARD-Ukraine) focuses on developing infrastructure for longitudinal data collection for trauma patients starting on the front lines of eastern Ukraine, through medical evacuation and definitive care in western Ukraine.","Kharkiv, Ukraine",49.985946,36.2735399
314,No,Ukraine,Dnipro,Research,School of Medicine,Emergency Med,"Co-Pis: Adit Ginde, MD MPH; Corey Bills, MD MPH; Ian Stanley PhD, Stacy Trent, MD MSPH",,,,,,,,,,,,,,,,,,,,"While initial funding is pending (DOD) the project focuses on research development in Ukraine with a focus on 3 core elements among civilians affected by war. (1) Infectious Disease: Antimicrobial Resistance Research to Improve Outcomes of Traumatic Wounds (ARROW) focuses on wound infections and related complications (e.g., sepsis, amputation). (2) Psychological Health: Addressing Psychological Health Needs Among Ukrainians During Wartime: Collaborative Approach to Resilience and Empowerment (CARE-Ukraine) focuses on understanding and improving psychological health impacts of war, including PTSD, depression, and suicide. (3) Major Trauma: Facilitating Outcomes Research through Wartime Trauma Registry Development in Ukraine (FORWARD-Ukraine) focuses on developing infrastructure for longitudinal data collection for trauma patients starting on the front lines of eastern Ukraine, through medical evacuation and definitive care in western Ukraine.","Dnipro, Ukraine",46.4975,32.30861
315,No,Ukraine,Zaporizhzhia,Research,School of Medicine,Emergency Med,"Co-Pis: Adit Ginde, MD MPH; Corey Bills, MD MPH; Ian Stanley PhD, Stacy Trent, MD MSPH",,,,,,,,,,,,,,,,,,,,"While initial funding is pending (DOD) the project focuses on research development in Ukraine with a focus on 3 core elements among civilians affected by war. (1) Infectious Disease: Antimicrobial Resistance Research to Improve Outcomes of Traumatic Wounds (ARROW) focuses on wound infections and related complications (e.g., sepsis, amputation). (2) Psychological Health: Addressing Psychological Health Needs Among Ukrainians During Wartime: Collaborative Approach to Resilience and Empowerment (CARE-Ukraine) focuses on understanding and improving psychological health impacts of war, including PTSD, depression, and suicide. (3) Major Trauma: Facilitating Outcomes Research through Wartime Trauma Registry Development in Ukraine (FORWARD-Ukraine) focuses on developing infrastructure for longitudinal data collection for trauma patients starting on the front lines of eastern Ukraine, through medical evacuation and definitive care in western Ukraine.","Zaporizhzhia, Ukraine",47.8464561,35.1492677
316,No,United Arab Emirates,Dubai,Education,Skaggs School of Pharmacy and Pharmaceutical Sciences,,Assistant Dean Kimberly Stultz,,,,,,,UAE - Dubai Pharmacy College for Girls,,,,,,,,,,,,,Affiliation agreements for education rotations,"Dubai, United Arab Emirates",25.2674058,55.2926806
317,No,United Kingdom,Chester,Research,College of Nursing,,"Deborah Kenny, PhD, RN",,,,,,,Westminster Centre for Research and Innovation in Veteransâ€™ Wellbeing at the University of Chester,,,,,,,,,,,,,"Arose from the Mil/Vet expert panel of the Academy. We hold bi-monthly webinars highlighting our research on military populations. The US and UK take turns hosting. Our December webinar will be #20, since we had to pivot and cancel our planned conference that was supposed to take place in September 2020. Itâ€™s a great way to learn what research is going on and potentially finding collaborations.","Chester, United Kingdom",53.19021912,-2.891645238
318,No,United Kingdom,London,Research,Colorado School of Public Health,Epidemiology,"Diguiseppi (Project Lead: Phil Edwards, PhD, LSHTM)",,,,,,,"London School of Hygiene and Tropical Medicine, London, United Kingdom",,,,,,,,,,,,,"Update of systematic review on methods to increase response rates to postal and electronic questionnaires (London School of Hygiene and Tropical Medicine, London, United Kingdom)","London, United Kingdom",51.50740836,-0.127698693
319,No,United Kingdom,Manchester,Research,Colorado School of Public Health,,Stephen Aichele (CSU),,,,,,,University of Manchester,,,,,,,,,,,,,"Lifetime Pollution Exposure and Cognitive Health in Adulthood. CSU internal grant. Co-Is at Uni Manchester, UK","Manchester, United Kingdom",53.47895624,-2.245275766
320,No,United Kingdom,London,Education,School of Medicine,GME,,,,,,,,,,,,,,,,,,,,,"International Student Travel. London, United Kingdom (Europe) Start Date: 03/01/2024 - End Date: 03/30/2024","London, United Kingdom",51.50740836,-0.127698693
321,No,United Kingdom,Glasgow,Education,School of Medicine,GME,,,,,,,,,,,,,,,,,,,,,"International Student Travel. Glasgow, United Kingdom (Europe) Start Date: 06/01/2023 - End Date: 06/06/2023","Glasgow, United Kingdom",55.86362504,-4.236869947
322,No,United Kingdom,,Education,Skaggs School of Pharmacy and Pharmaceutical Sciences,Clinical Pharmacy,,,,,,,,England - H Lloyd Chemist and Somerset Gardens Pharmacy,,,,,,,,,,,,,Affiliation Agreement with England - H Lloyd Chemist and Somerset Gardens Pharmacy,United Kingdom,53.40838661,-1.969559544
323,No,United Kingdom,London,Research,Skaggs School of Pharmacy and Pharmaceutical Sciences,Clinical Pharmacy,Michael DiStefano,,,,,,,Victoria Charlton,,,,,,,,,,,,,"Research collaboration with Victoria Charlton (UK) on health technology assessment (1 published paper in 2023, 2 under review)","London, United Kingdom",51.50740836,-0.127698693
324,No,United Kingdom,Chester,Education,Skaggs School of Pharmacy and Pharmaceutical Sciences,,Assistant Dean Kimberly Stultz,,,,,,,Community Pharmacies,,,,,,,,,,,,,Affiliation Agreements with Community Pharmacies,"Chester, United Kingdom",53.19021912,-2.891645238
325,No,United States,Aurora,Education,School of Medicine,Pediatrics,Sandra Luna-Fineman,,,,,,,"UNOP, SLAOP, AHOPCA, GALOP (different consortiums and organizations from Latin America)",,,,,,,,,,,,,"Support to the Latin America projects on implementation reseach and instruments to evaluate and improve diagnosis, management and outcoms of childhood cancer (PrOFILE, ARIA, StJudeCares)","Aurora, United States",39.712934,-104.81936
326,No,United States,Aurora,Research,School of Medicine,Pediatrics,Sandra Luna-Fineman,,,,,,,"UNOP, SLAOP, AHOPCA, GALOP (different consortiums and organizations from Latin America)",,,,,,,,,,,,,"Support to the Latin America projects on implementation reseach and instruments to evaluate and improve diagnosis, management and outcoms of childhood cancer (PrOFILE, ARIA, StJudeCares)","Aurora, United States",39.712934,-104.81936
327,No,United States,Memphis,Education,School of Medicine,Pediatrics,Sandra Luna-Fineman,,,,,,,"UNOP, SLAOP, AHOPCA, GALOP (different consortiums and organizations from Latin America)",,,,,,,,,,,,,"Support to the Latin America projects on implementation reseach and instruments to evaluate and improve diagnosis, management and outcoms of childhood cancer (PrOFILE, ARIA, StJudeCares)","Memphis, United States",35.1433781,-90.0521356
328,No,United States,Memphis,Research,School of Medicine,Pediatrics,Sandra Luna-Fineman,,,,,,,"UNOP, SLAOP, AHOPCA, GALOP (different consortiums and organizations from Latin America)",,,,,,,,,,,,,"Support to the Latin America projects on implementation reseach and instruments to evaluate and improve diagnosis, management and outcoms of childhood cancer (PrOFILE, ARIA, StJudeCares)","Memphis, United States",35.1433781,-90.0521356
329,No,Vietnam,Ho Chi Minh City,Education,Colorado School of Public Health,Center For Global Health,Michelle Shiver,,,,,,,Pasteur Institute of Ho Chi Minh City,,,,,,,,,,,,,This MOU is expired and was set up by Michelle Shiver who was the Center Admin for CGH from 2008-2018,"Ho Chi Minh City, Vietnam",10.77653,106.700977
330,No,Vietnam,Hanoi,Research,Colorado School of Public Health,Community and Behavioral Hlt,Cherewick (Miranda Dally Co-PI),,,,,,,United Nations Vietnam,,,,,,,,,,,,,Climate Change and OSH of Vietnamese farmers: International Labor Organization formative research study to identify risk factors and opportunities to adapt to climate change related hazards of Vietnamese agricultural workers,"Hanoi, Vietnam",21.028279,105.853881
331,No,Vietnam,Hanoi,Research,Colorado School of Public Health,,"Cherewick (Miranda Dally Co-PI), Newman, Krisher (EHOH, Co-I)",,,,,,,International Labor Organization's Vision Zero Fund,,,,,,,,,,,,,"ILO Consultation Project: Feasibility study to identify opportunities to address occupational safety and health challenges linked to climate change in the agricultural supply chains in Viet Nam. This is a pilot, qualitative methods study to understand Vietnamese Farmers' perceptions of climate change impacts on their livelihoods, in support of the International Labour Organization's Vision Zero Fund.","Hanoi, Vietnam",21.028279,105.853881
332,No,Vietnam,Hanoi,Education,School of Medicine,,,,,,,,,,,,,,,,,,,,,,"International Student Travel. Hanoi, Vietnam (Asia) Start Date: 03/09/2024 - End Date: 03/22/2024","Hanoi, Vietnam",21.028279,105.853881
333,No,Vietnam,Ho Chi Minh City,Education,Skaggs School of Pharmacy and Pharmaceutical Sciences,,Assistant Dean Kimberly Stultz,,,,,,,Vietnam - Louis Pasteur Clinic,,,,,,,,,,,,,Affiliation Agreement with Vietnam - Louis Pasteur Clinic,"Ho Chi Minh City, Vietnam",10.77653,106.700977
334,No,Zambia,Lusaka,Education,Colorado School of Public Health,,Matt Bolt,,,,,,,"University of Zambia, BIOS/CIDA",,,,,,,,,,,,,Evaluating what factors increase a likelihood to use PrEP among students at the University of Zambia,"Lusaka, Zambia",-15.4196231,28.2831472
335,No,Zambia,Lusaka,Education,Colorado School of Public Health,Epidemiology,"Hampanda, Karen",,,,,,,,,,,,,,,,,,,,"International Student Travel. Lusaka, Zambia (Africa) Start Date: 07/04/2022 - End Date: 07/25/2022","Lusaka, Zambia",-15.4196231,28.2831472
336,No,Zambia,Lusaka,Education,School of Medicine,Emergency Med,"Julia Dixon, MD MPH (PI)",,,,,,,University Teaching Hospital of Zambia in Lusaka,,,,,,,,,,,,,In partnership with the MOH of Zambia and University teaching Hospital we aim help to develop emergency care curriculum and support systems improvements emergency care at UTH,"Lusaka, Zambia",-15.4196231,28.2831472
337,No,Zambia,Lusaka,Education,School of Medicine,Obstetrics And Gynecolgy,"Hampanda, Karen",,,,,,,University of Zambia,,,,,,,,,,,,,"mHealth Intervention to Increase Uptake of Contraception and PrEP Among Female University Students in Lusaka, Zambia (R21MH131281) and Promoting HIV health behaviors among pregnant couples in Zambia using an adaptive relationship strengthening intervention (R00MH116735)","Lusaka, Zambia",-15.4196231,28.2831472
338,No,Zimbabwe,Bulawayo,Education,School of Medicine,,"Thomas Campbell, Ed Havranek, Suzanne Brandenburg, Nancy Madinger, Jennifer Vail-Daley, Christine Velez,",,,,,,,"University of Zimbabwe, College of Health Sciences (UZCHS), National University of Science and Technology (NUST Faculty of Medicine), Midlands State University (MSU Faculty of Medicine) and Africa University (AU Department of Health Sciences)",,,,,,,,,,,,,"The Partnership in Education Training and Research Advancement (PETRA) program is a consortium of four Zimbabwean Universities collaborating with two United States Universities. The Zimbabwe Consortium members are the University of Zimbabwe, College of Health Sciences (UZCHS), National University of Science and Technology (NUST Faculty of Medicine), Midlands State University (MSU Faculty of Medicine) and Africa University (AU Department of Health Sciences). The American Universities are; University of Colorado Denver and Stanford University. The program is supported by the Fogarty International Centre of the United States Institutes of Health and will run from 2018 through to 2023, with a 1-year extension to Sept 2024.The program has two broad strands namely Interprofessional Education and Collaborative Practice (IPE/CP) and Dissemination and Implementation Science (DIS). My role with the CON, is faculty development followed by student curricular development for the advancement of IPE/CP at all four partnering institutions.","Bulawayo, Zimbabwe",-20.1519036,28.5849271
339,No,Zimbabwe,Harare,Education,School of Medicine,GME,"Ed Havranek, Suzanne Brandenburg, Nancy Madinger, Thomas Campbell",,,,,,,University of Zimbabwe College of Health Sciences (UZCHS),,,,,,,,,,,,,"Bilateral exchange program between DOM, SOM, and Dept of Internal Medicine at University of Zimbabwe College of Health Sciences (UZCHS). Faculty and trainees exchange, clinical research in HIV, cardiology and internal medicine","Harare, Zimbabwe",-17.8276279,31.0504518
340,No,Zimbabwe,Harare,Service/Clinical,School of Medicine,,"Thomas Campbell, Suzanne Brandenburg, Nancy Madinger; Ali Musani and Reem Hana",,,,,,,University of Zimbabwe College of Health Sciences (UZCHS),,,,,,,,,,,,,"Bilateral exchange program between DOM, SOM, and Dept of Internal Medicine at University of Zimbabwe College of Health Sciences (UZCHS). Faculty and trainees exchange, clinical research in HIV, cardiology and internal medicine","Harare, Zimbabwe",-17.8276279,31.0504518
341,No,Zimbabwe,Harare,Education,School of Medicine,,Ali Musani and Reem Hana,,,,,,,University of Zimbabwe College of Health Sciences (UZCHS),,,,,,,,,,,,,"Residents rotate through 1-month elective, faculty and trainees exchange, clinical research in HIV, cardiology and internal medicine","Harare, Zimbabwe",-17.8276279,31.0504518
342,No,Zimbabwe,Harare,Education,School of Medicine,Emergency Med,Emilie J. Calvello Hines,,,,,,,As Needed,,,,,,,,,,,,,"Disaster relief, tied with WHO and African Federation for Emergency Medicine. Https://coloradoglobalem.org. Other major activities: fellowship, robust resident track, attending opportunities","Harare, Zimbabwe",-17.8276279,31.0504518
343,No,Zimbabwe,Harare,Education,School of Medicine,Pediatrics,Sandra Luna-Fineman,,,,,,,,,,,,,,,,,,,,Support on the development of Pediatric Oncology in Zimabwe. Lasted only 6 months as St Jude invovled with their own faculty and I was asked by the MD from Zimbabwe NOT to participate,"Harare, Zimbabwe",-17.8276279,31.0504518
344,No,Zimbabwe,Harare,Service/Clinical,School of Medicine,Pediatrics,Sandra Luna-Fineman,,,,,,,,,,,,,,,,,,,,Support on the development of Pediatric Oncology in Zimabwe. Lasted only 6 months as St Jude invovled with their own faculty and I was asked by the MD from Zimbabwe NOT to participate,"Harare, Zimbabwe",-17.8276279,31.0504518
345,Yes,Africa,Zimbabwe and multiple others,Service/Clinical,School of Medicine,Cancer Center,Tom Flaig,,,,,,,African Organisation for Research and Training in Cancer,,,,,,,,,,,,,"Developing multiple cancer guidelines specific to sub–Saharan Africa with the NCCN. Working wtih AORTIC (African Organisation for Research and Training in Cancer). Visits include Ghana, Senegal, Rwanda, Ethiopia","Zimbabwe and multiple others, Africa",-29.6913919,30.9767194
346,Yes,Africa,Zimbabwe and multiple others,Research,School of Medicine,Cancer Center,Tom Flaig,,,,,,,African Organisation for Research and Training in Cancer,,,,,,,,,,,,,"Developing multiple cancer guidelines specific to sub–Saharan Africa with the NCCN. Working wtih AORTIC (African Organisation for Research and Training in Cancer). Visits include Ghana, Senegal, Rwanda, Ethiopia","Zimbabwe and multiple others, Africa",-29.6913919,30.9767194
347,Yes,AFRICA (needs more information),,Research,Skaggs School of Pharmacy and Pharmaceutical Sciences,,Peter Anderson,,,,,,,,,,,,,,,,,,,,PrEP adherence-concentration thresholds associated with HIV protection among African women,AFRICA (needs more information),45.521428,-122.680546
348,Yes,AFRICA (needs more information),,Research,Skaggs School of Pharmacy and Pharmaceutical Sciences,,Peter Anderson,,,,,,,,,,,,,,,,,,,,HIV Prevention Trials Network (HPTN) Pharmacology Support Laboratory,AFRICA (needs more information),45.521428,-122.680546
349,Yes,AFRICA (needs more information),,Research,Skaggs School of Pharmacy and Pharmaceutical Sciences,,Peter Anderson,,,,,,,,,,,,,,,,,,,,International Maternal Pediatric Adolescent AIDS Clinical Trials (IMPAACT) Pharmacology Support Laboratory,AFRICA (needs more information),45.521428,-122.680546
350,Yes,AFRICA (needs more information),,Research,Skaggs School of Pharmacy and Pharmaceutical Sciences,,Peter Anderson,,,,,,,,,,,,,,,,,,,,Adult AIDS Clinical Trials Group (ACTG) Pharmacology Specialty Laboratories (PSL),AFRICA (needs more information),45.521428,-122.680546
351,Yes,Central America,,Research,Colorado School of Public Health,Health Systems Mgmt Polic,Meredith Fort,,,,,,,Institute of Nutrition of Central America and Panama,,,,,,,,,,,,,Institute of Nutrition of Central America and Panama (since 2013); diverse research and public health projects including U01 - Implementing a Multicomponent Intervention to Improve Hypertension Control in Central America and related participation in global consortium on cardiovascular health,Central America,12.5,-85
352,Yes,International,Switzerland and beyond,Service/Clinical,Colorado School of Public Health,Center For Global Health,May Chu,,,,,,,World Health Organization,,,,,,,,,,,,,"Serves as Senior Advisor on the WHO guidelines boards for infection control and prevention for COVID-19 research and for Personal Protective Equipment for Viral Hemoraghic Fevers. WHO is in Geneva, Switzerland, the guidelines are for all 196 countries.","Switzerland and beyond, International",46.3114436,7.4811865
353,Yes,International,,Education,Colorado School of Public Health,,"Madiha Abdel-Maksoud, MD, PhD",,,,,,,Mutiple locations,,,,,,,,,,,,,MPH students in any Department have the option to add the Global Health Concentrations.,International,34.1010222,-117.2694173
354,Yes,International,,Education,Colorado School of Public Health,,"Madiha Abdel-Maksoud, MD, PhD",,,,,,,Mutiple locations,,,,,,,,,,,,,"The Global Health Certicate is a standalone certificate, and is different from the Global Health MPH Program",International,34.1010222,-117.2694173
355,Yes,International,,Service/Clinical,Colorado School of Public Health,Environmental and Occ Hlth,"Madeline Ross, MD MPH, Jessica Ryder, MD, Corey Bills MD MPH",,,,,,,"Team Rubicon, mulitple locations",,,,,,,,,,,,,"Team Rubicon is an international non-government organization specializing in disaster response. Faculty and fellows deploy with TR in response to targeted disasters. Previous deployments with CU faculty include: Ukraine, Niger, Papua New Guinea, Guatemala, Morocco, Haiti.",International,34.1010222,-117.2694173
356,Yes,International,,Education,Colorado School of Public Health,Epidemiology,"Molly Lamb, Dan Olson, Edwin Asturias",,,,,,,,,,,,,,,,,,,,Global health elective course,International,34.1010222,-117.2694173
357,Yes,International,,Education,Colorado School of Public Health,Epidemiology,"Molly Lamb, Dan Olson, Gretchen Domek, Lisa Umphrey",,,,,,,,,,,,,,,,,,,,Mentorship of fellows in Colorado Global Health Fellowship Program,International,34.1010222,-117.2694173
358,Yes,International,,Education,Colorado School of Public Health,,Program Directors for each program: 1. BIOS: Fosdick; 2: CBH: Cherewick; 3. EPID: Abdel-Maksoud; 4. EHOH: Bauer; 5. HSMP: McManus; 6. MCH: Greenwell; 7. CHE: Heise (UNC),,,,,,,,,,,,,,,,,,,,Each of the main Master of Public concentrations in the aforementioned departments has the option of doing a dual concentration with global health plus. This means that a student completing a MPH concentration can add on global health courses to get a designation in global health and the other MPH concentration.,International,34.1010222,-117.2694173
359,Yes,International,,Education,Colorado School of Public Health,,Tracy Nelson (CSU),,,,,,,,,,,,,,,,,,,,Global Health and Health Disparities - Master of Public Health concentration,International,34.1010222,-117.2694173
360,Yes,International,,Service/Clinical,Colorado School of Public Health,Epidemiology,David Rojas,,,,,,,,,,,,,,,,,,,,"Works with C40, which has locations in 96 global cities, and CSU One Health Institute, which is in 16,000 cities",International,34.1010222,-117.2694173
361,Yes,International,,Research,Colorado School of Public Health,Biostatistics and Informatc,Kayleigh Keller (CSU PI),,,,,,,,,,,,,,,,,,,,Gateway to Global Aging Project: An international collaboration to harominize data from the Health and Retirement Study International Network of Studies (HRS-INS) and investigate potential relationships between environmental exposures and measures of cognitive aging. The lead institution is the University of Southern California.,International,34.1010222,-117.2694173
362,Yes,International,,Education,Colorado School of Public Health,Environmental and Occ Hlth,Neil Grigg (CSI),,,,,,,,,,,,,,,,,,,,"Course includes students from Ghana, Nigeria, Myanmar. Course graders are two PhD students from Panama",International,34.1010222,-117.2694173
363,Yes,International,,Service/Clinical,Colorado School of Public Health,,Andrew Seidl (CSU),,,,,,,United Nations Development Program,,,,,,,,,,,,,Biodiversity Finance Initiative (UNDP-BIOFIN): www.biofin.org; Seidl is Senior Technical Advisor to this UNDP program. BIOFIN focuses on developing and implementing finance mechanisms to bride the biodiversity investment gap at the country level. BIOFIN is currently active in 41 countries and will expand to 131 countries in 2024.,International,34.1010222,-117.2694173
364,Yes,International,,Education,Colorado School of Public Health,,Andrew Seidl (CSU),,,,,,,,,,,,,,,,,,,,Semester at Sea: https://www.semesteratsea.org/voyages/spring-2024/,International,34.1010222,-117.2694173
365,Yes,International,,Education,Colorado School of Public Health,Biostatistics and Informatc,Antonio Porras,,,,,,,FUTURE-AI Statement,,,,,,,,,,,,,"This work describes the FUTURE-AI guideline as the first international consensus framework for guiding the development and deployment of trustworthy AI tools in healthcare. The FUTURE-AI consortium was founded in 2021 and currently comprises 118 inter-disciplinary experts from 51 countries representing all continents, including AI scientists, clinicians, ethicists, and social scientists.",International,34.1010222,-117.2694173
366,Yes,International,,Education,School of Medicine,,"Madiha Abdel-Maksoud, MD, PhD; Molly Lamb, Dan Olson, Lisa Umphrey, Joe Wathen",,,,,,,https://medschool.cuanschutz.edu/education/current-students/curriculum/longitudinal-curriculum/tracks/global-program,,,,,,,,,,,,,"The Global Health Track is a longitudinal experience during all 4 years of med school. Each year, the Track enrolls ~18 med students and 2 PA students.",International,34.1010222,-117.2694173
367,Yes,International,,Research,School of Medicine,,Corey Bills MD MPH (Lead),,,,,,,,,,,,,,,,,,,,"Global Emergency Care Initiative (GECI) is a program within the DEM and the major platform for organizing global health activities among Departmental Faculty (7 core faculty), fellows (2), residents, and affiliate members. Our mission is to: ""To create enduring partnerships, leverage science and best evidence, and to support the implementation of practical and locally appropriate solutions to improve access to timely, quality emergency care for all people.""",International,34.1010222,-117.2694173
368,Yes,International,,Service/Clinical,School of Medicine,Emergency Med,Corey Bills MD MPH (Lead),,,,,,,World Health Organization Gloval Emergency and Trauma Care Initiative,,,,,,,,,,,,,"The WHO Global Emergency and Trauma Care Initiative (GETI) was launched in January 2019, with the following two goals: 1) to rapidly increase capacities to provide quality emergency care in countries around the world, and 2) to foster awareness through a global advocacy campaign about its potential to save lives. As a Department we have applied for formal WHO Collaborating Center Status and are one of 3 university departments (in partnership with John Hopkins University and University of California San Francisco) in the PAHO region to support emergency care development.",International,34.1010222,-117.2694173
369,Yes,International,,Service/Clinical,School of Medicine,Emergency Med,"Corey Bills MD MPH, ulia Dixon, MD MPH; Madeline Ross, MD MPH; Branden Skarpiak",,,,,,,,,,,,,,,,,,,,"The Individual faculty listed serve as consultants to the WHO Clinical Services and Systems. As a result of this work individuals partners to strengthen WHO work with targeted past work in Armenia, Nepal, Liberia, Zambia, Jordan.",International,34.1010222,-117.2694173
370,Yes,International,,Education,School of Medicine,,"Corey Bills, MD MPH, Fellowship Director; Madeline Ross MD MPH Assistant Director; Current Fellows Drs. Will Fraser MD, Ashley Pickering, MD MPH.",,,,,,,Multiple Locations,,,,,,,,,,,,,"The Department of Emergency Medicine Fellowship is a two-year post graduate fellowship in global emergency care development with a particular emphasis on the fundamentals of public health. The Fellowship includes clinical work in the emergency department with adequate time for sustained field work with a focus on research, programmatic development, and global health policy.",International,34.1010222,-117.2694173
371,Yes,International,,Education,School of Medicine,,Corey Bills MD MPH; Branden Skarpiak MD MPH,,,,,,,,,,,,,,,,,,,,"The Global Health track is a formal residency mechanism for interested residents, with the aim of providing sustained targeted work and building a future career in global emergency care.",International,34.1010222,-117.2694173
372,Yes,International,,Research,School of Medicine,,David Richards,,,,,,,Multiple Locations,,,,,,,,,,,,,CDC and ASPR grant related to Global Special Pathogens Response,International,34.1010222,-117.2694173
373,Yes,International,,Education,School of Medicine,,Leana May Moser,,,,,,,,,,,,,,,,,,,,"Run longitudinal curriculum for pediatric residents (including categorial pediatrics, pediatric neurology and PM+R: monthly educaitonal sessions; direct mentorship for global rotations during residency; 3 weeks of GH education during their internship year (GH and Disasters Course and 1 week of direct lectures by pathway faculty); quarterly journal club facilitated by senior residents and CGH fellows with faculty mentorship provided; facilitate CHCO academic 1/2 day for all pediatric residents every other year; run a local global elective available for all CHCO residents that GH pathway residents can dedicate rotation time for or complete longitudinally during CFEB time",International,34.1010222,-117.2694173
374,Yes,International,,Service/Clinical,School of Medicine,Pediatrics,Leana May Moser,,,,,,,Serious Fun Network,,,,,,,,,,,,,"Serios Fun Network: Serve as volunteer faculty, helping develop and deliver pediatric curriculum for the medical students. Includes: Japan, Israel, France, Hungary, Ireland, Italy, United Kingdom, Botswana, Ethiopia, Lesotho, Malawi, South Africa, Eswatini, Tanzania, Uganda, Cambodia, India, Vietnam, and Haiti",International,34.1010222,-117.2694173
375,Yes,International,,Service/Clinical,School of Medicine,Pediatrics,Sandra Luna-Fineman,,,,,,,WHO GICC (Global Initiative for Childhood cancer),,,,,,,,,,,,,"Policy briefs for: acute lymphoblastic leukemia, Burkitt lymphoma, Hodkgin lymphoma, low grade glioma, retinoblastoma and Wilms tumor",International,34.1010222,-117.2694173
376,Yes,International,,Service/Clinical,School of Medicine,,"John ""Fred"" Thomas",,,,,,,,,,,,,,,,,,,,"Multiple international sites involving peer-mentored care collaborative. Ongoing specialty support for education, case review and follow-up between on-site visits",International,34.1010222,-117.2694173
377,Yes,International,,Education,Skaggs School of Pharmacy and Pharmaceutical Sciences,,Dean Altiere,,,,,,,,,,,,,,,,,,,,"Lead for all education related activities at the International Pharmaceutical Federation. Chair the FIPEd executive commmittee that includes the Academic Institutional Members (AIM), Academic Pharmacy Section (AcPS), FIP UNESCO-UNITWIN program, and education elements of FIP workforce development hub/FIP Hub, Early Career Pharmacist Group and International Pharmaceutical Student Federation",International,34.1010222,-117.2694173
378,Yes,International,,Education,Skaggs School of Pharmacy and Pharmaceutical Sciences,Clinical Pharmacy,Shaun E. Gleason,,,,,,,,,,,,,,,,,,,,"The Global Advocacy Task Force of the American Association of Colleges of Pharmacy's Global Education Special Interest Group is involved in projects related to advancing the profession through global advocacy topics. Examples include work in assessing current visa challenges of the PharmD degree (currently not recognized as science-related degree), sharing challenges of entry- and mid-career international learners in US systems and the benefits to helping overcome them, and others.",International,34.1010222,-117.2694173
379,Yes,International,,Education,Skaggs School of Pharmacy and Pharmaceutical Sciences,Clinical Pharmacy,Shaun E. Gleason,,,,,,,,,,,,,,,,,,,,"Serve as a Global Lead for Academic Capacity on the International Pharmaceceutical Federation's (FIP) Development. The Hub is a team of 20+ practice, academic and pharmaceutical sciences professionals who lead projects to generate intelligence, and provide evidece-based resources and tools to inform and support FIP's Development Goals. Examples of work include development of a handbook on Competency Based Education, leading and coordinating multiple global webinars on online learning during COVID, development of assessments of academic capacity in schools/colleges of pharmacy and other projects. Work of the Hub often partners with other groups within FIP, such as FIP Academic Institutional Members (AIM), Academic Pharmacy Section (AcPS), FIP UNESCO-UNITWIN program, and others.",International,34.1010222,-117.2694173
380,Yes,International,,Education,Skaggs School of Pharmacy and Pharmaceutical Sciences,Clinical Pharmacy,Shaun E. Gleason and the SSPPS faculty,,,,,,,,,,,,,,,,,,,,"International Trained PharmD (ITPD) Program. The ITPD program is a hybrid-delivered, advanced-standing entry-level Doctor of Pharmacy (PharmD) program for pharmacists around the world aiming to advance their BS/MS education toward a PharmD. Started in 2014, it is the first (and only) of its kind that is ACPE-accredited. It's 20+ graduates meet its mission of advancing patient-centered worldwide, through immediate application in their practices, educating peers and students, leading professional development programs, advocating for the profession with their local health ministers and others.",International,34.1010222,-117.2694173
381,Yes,International,,Education,Skaggs School of Pharmacy and Pharmaceutical Sciences,Clinical Pharmacy,Joseph Saseen,,,,,,,,,,,,,,,,,,,,LGBT+ International Pharmacy Conference Planning Committee. Member of the planning committee for this new international pharmacy conference. It is seeking endorsement/recognition by the International Pharamaceutical Federation and plans are to host the meeting in Australia in 2025.,International,34.1010222,-117.2694173
382,Yes,International,,Education,Skaggs School of Pharmacy and Pharmaceutical Sciences,Clinical Pharmacy,R. Brett McQueen,,,,,,,,,,,,,,,,,,,,Center for Pharmaceutical Value (pValue) is a collaborative grant with over $1.1 million in funding to date from external and internal sources. We partner with an international non-profit named Syreon Research Institute. Syreon tested a method in middle and lower income countries for transparent drug pricing discussions. We are adopting this method for the United States market. This relationship has led to mutliple visiting scholars to the school for additioinal research projects as well as shared educational opportunities at international conferences.,International,34.1010222,-117.2694173
383,Yes,International,,Research,Skaggs School of Pharmacy and Pharmaceutical Sciences,Clinical Pharmacy,Jacquelyn Bainbridge,,,,,,,LLLP Committee Lead; ICRS Member and educator; ILAE Pharmacy SIG committee; ECTRIMS; United Nations,,,,,,,,,,,,,Programing committee lead for 2023; Educational presenter; Newly added ILAE Pharmacy section Committee; Presentor and Mentor; Presentor in Vienna,International,34.1010222,-117.2694173
384,Yes,International,,Research,Skaggs School of Pharmacy and Pharmaceutical Sciences,Pharmaceutical Sciences,Manisha Patel,,,,,,,,,,,,,,,,,,,,"Officer of American Epilepsy Society, Member of ILAE DEI Taskforce, Member of Research and Innovation Taskforce",International,34.1010222,-117.2694173
385,Yes,International,,Research,Skaggs School of Pharmacy and Pharmaceutical Sciences,Pharmaceutical Sciences,Jared M. Brown,,,,,,,,,,,,,,,,,,,,On the planning committee for the NanoEH conference. Organized a conference in the UK and working on future conference in South America,International,34.1010222,-117.2694173
386,Yes,Latin America,Guatemala City,Research,School of Medicine,Pediatrics,"Thelma Velasquez (PI), Filippo Spreafico (Instituto di Tumori, Milan Italy) and Sandra Luna-Fineman Co-mentors",,,,,,,Unidad Nacional de Oncologia Pediatrica,,,,,,,,,,,,,"Writing an guideline and implementation stratagy for the diagnosis, treatment and support of Wilms Tumor in Latin America (collaboration between AHOPCA, Instituto di Tumori, Milan, Italy, St Jude Global Medicine and U Colorado, Anschutz Med Center, CO, USA.","Guatemala City, Latin America",18.352544,-67.010184
387,Yes,Latin American,,Research,Colorado School of Public Health,Epidemiology,David Rojas (CSU),,,,,,,Wellcome Trust,,,,,,,,,,,,,Lancet Countdown Latin America,Latin American,-25.5959781,-54.5747045
388,Yes,Latin American,,Research,Colorado School of Public Health,Epidemiology,David Rojas (CSU),,,,,,,World Health Organization,,,,,,,,,,,,,Air Pollution Risk Assessment in Latin American,Latin American,-25.5959781,-54.5747045
389,Yes,South America,,Research,Colorado School of Public Health,Epidemiology,David Rojas (CSU),,,,,,,Wellcome Trust,,,,,,,,,,,,,Health co-benefits of climate change mitigation in South America,South America,-14.60485,-57.65625
390,Yes,Sub-Saharan Africa,,Research,Skaggs School of Pharmacy and Pharmaceutical Sciences,,Peter Anderson,,,,,,,,,,,,,,,,,,,,Optimizing PrEP regimens for pregnant women in sub-Saharan Africa,Sub-Saharan Africa,1.5509,25.63297